{"type": "FeatureCollection", "features": [{"type": "Feature", "properties": {"role": "port_boundary", "name": "مرفأ بانياس (حوض التحميل النفطي)", "derivation": "OSM breakwater way 1340825778 — a closed ring enclosing the basin"}, "geometry": {"type": "Polygon", "coordinates": [[[35.945462, 35.2236041], [35.9454588, 35.2235548], [35.9456744, 35.22277], [35.9457026, 35.2226945], [35.9457564, 35.2226058], [35.9467711, 35.2214773], [35.9467131, 35.221443], [35.9457065, 35.2225848], [35.9456557, 35.2226516], [35.9456162, 35.2227321], [35.9453736, 35.2236471], [35.9453892, 35.2236604], [35.9453829, 35.2236925], [35.9453722, 35.2237162], [35.9453486, 35.223721], [35.945324, 35.2237141], [35.9453119, 35.2236983], [35.9453131, 35.2236801], [35.9455721, 35.222721], [35.9456081, 35.2226461], [35.945666, 35.22257], [35.9466782, 35.2214189], [35.9467527, 35.2213452], [35.9468444, 35.2212865], [35.9469668, 35.2212509], [35.949761, 35.2206558], [35.9496949, 35.2206045], [35.9496484, 35.2205866], [35.9494731, 35.2205999], [35.9469538, 35.2211427], [35.9466841, 35.2212408], [35.9465561, 35.2213576], [35.9455351, 35.2225148], [35.9454781, 35.2226186], [35.9454233, 35.2227247], [35.9451671, 35.2237176], [35.945171, 35.2237581], [35.9451896, 35.2237957], [35.9452212, 35.2238271], [35.9452628, 35.2238493], [35.9453106, 35.2238603], [35.9453603, 35.2238591], [35.9454073, 35.2238458], [35.9454473, 35.2238216], [35.9454765, 35.2237887], [35.9454923, 35.2237502], [35.9454927, 35.223707], [35.945462, 35.2236041]]]}}, {"type": "Feature", "properties": {"role": "breakwater", "osm_ids": [1340825778, 1340825780, 1340825775]}, "geometry": {"type": "MultiLineString", "coordinates": [[[35.9466405, 35.2231747], [35.948616, 35.2242007], [35.9486035, 35.2242387], [35.9465619, 35.2231636], [35.946565, 35.223152], [35.9465634, 35.2231401], [35.9465572, 35.2231294], [35.9465471, 35.2231208], [35.946535, 35.2231156], [35.9465216, 35.2231136], [35.946508, 35.223115], [35.9464956, 35.2231196], [35.9464855, 35.2231271], [35.9464788, 35.2231364], [35.9464757, 35.223147], [35.9464766, 35.2231577], [35.9464812, 35.2231679], [35.9464893, 35.2231764], [35.9485802, 35.2242596], [35.9484421, 35.224293], [35.946397, 35.2232992], [35.9463602, 35.2232738], [35.9463342, 35.2232407], [35.9463214, 35.2232028], [35.946323, 35.2231635], [35.9463387, 35.2231264], [35.9463697, 35.2230927], [35.9464121, 35.2230689], [35.9464616, 35.2230572], [35.946513, 35.2230589], [35.9465611, 35.2230739], [35.946588, 35.2230917], [35.9466405, 35.2231747]], [[35.9495265, 35.2150659], [35.9492965, 35.2143394]]]}}, {"type": "Feature", "properties": {"role": "jetty", "osm_ids": [255681448, 255681449, 478479855, 478479857]}, "geometry": {"type": "MultiLineString", "coordinates": [[[35.9582552, 35.2169332], [35.9583078, 35.2144469], [35.9589489, 35.2142445], [35.9593566, 35.2139464], [35.9603114, 35.2131575], [35.9609337, 35.212281], [35.9615023, 35.2119128], [35.9621568, 35.2116937], [35.9645386, 35.211308], [35.9664698, 35.2108346], [35.9685404, 35.2105629], [35.9711368, 35.2104489], [35.9728856, 35.2100807], [35.9753533, 35.2105541], [35.9765334, 35.2106242], [35.9763441, 35.2149873], [35.9757325, 35.2167053], [35.9751279, 35.2168565], [35.9751746, 35.2176344], [35.9769518, 35.217102], [35.9783396, 35.2172225], [35.9770669, 35.2210306], [35.9776361, 35.2211542], [35.9769878, 35.2220432], [35.9763939, 35.2225449], [35.9719345, 35.2234806], [35.9704003, 35.2255139], [35.9643669, 35.2274179], [35.9618242, 35.2280139], [35.9604547, 35.2276786], [35.9586163, 35.2276633], [35.9584875, 35.2275581], [35.9577188, 35.2257943], [35.9574576, 35.2249201], [35.9577842, 35.2219158], [35.9581227, 35.2183992], [35.9582241, 35.2173772], [35.9582552, 35.2169332]], [[35.9518249, 35.2297316], [35.952415, 35.2293284], [35.9525368, 35.2293876], [35.9532771, 35.229002], [35.9534879, 35.2291707], [35.9550436, 35.2284608], [35.9546788, 35.2277948], [35.9534664, 35.2268044], [35.950913, 35.2289253], [35.9518249, 35.2297316]], [[35.9505697, 35.2272929], [35.9499263, 35.2259769], [35.9513828, 35.2255017], [35.9520262, 35.2268178], [35.9505697, 35.2272929]], [[35.957027, 35.2249449], [35.955574, 35.2253819], [35.9536587, 35.2267415], [35.9547683, 35.2277449], [35.9551315, 35.228457], [35.9559438, 35.2283168], [35.9555542, 35.2266174], [35.9575883, 35.2263422], [35.957027, 35.2249449]]]}}, {"type": "Feature", "properties": {"role": "coastline"}, "geometry": {"type": "LineString", "coordinates": [[35.9336687, 35.2574625], [35.9337048, 35.2568933], [35.9336705, 35.2563643], [35.9335314, 35.2561427], [35.9333883, 35.2560809], [35.9329287, 35.2558386], [35.9326454, 35.2558212], [35.9325759, 35.2557543], [35.9325016, 35.2557259], [35.9324053, 35.2556231], [35.9324426, 35.2555689], [35.9324286, 35.2554211], [35.9322909, 35.255276], [35.9321683, 35.255316], [35.9321054, 35.2553145], [35.9320443, 35.2552661], [35.9318205, 35.2550378], [35.93197, 35.2549891], [35.9321073, 35.2549911], [35.9322244, 35.2549734], [35.932384, 35.2550571], [35.9327506, 35.2548628], [35.933085, 35.2546666], [35.9334565, 35.2544556], [35.9335978, 35.2544044], [35.933719, 35.2544159], [35.9342524, 35.2539596], [35.9346698, 35.2531978], [35.9344765, 35.2528783], [35.9344566, 35.2527204], [35.9345767, 35.2525685], [35.9345984, 35.252392], [35.9349066, 35.2519091], [35.9356058, 35.2512108], [35.9363521, 35.2510042], [35.9365989, 35.2504343], [35.9364564, 35.2503183], [35.9362736, 35.2503176], [35.9362746, 35.250209], [35.9363663, 35.2501614], [35.9365606, 35.2501351], [35.9369123, 35.2500792], [35.9392753, 35.246012], [35.9394234, 35.2452643], [35.9391453, 35.2452323], [35.9391022, 35.2450052], [35.9395252, 35.2449508], [35.9396581, 35.2446465], [35.9408258, 35.2424137], [35.9417817, 35.24051], [35.9424829, 35.238939], [35.9425338, 35.2382031], [35.9428433, 35.2378383], [35.9432037, 35.2371664], [35.9436033, 35.2361681], [35.9438893, 35.2359793], [35.9455385, 35.2328276], [35.945671, 35.2322611], [35.9460086, 35.231906], [35.9464623, 35.2309608], [35.9465768, 35.2296867], [35.9466173, 35.2292353], [35.9474591, 35.2283578], [35.9482239, 35.2276766], [35.9484282, 35.2273519], [35.9485124, 35.2270464], [35.9485427, 35.2268295], [35.9485074, 35.2267027], [35.9484096, 35.226599], [35.9483375, 35.226633], [35.9482669, 35.226696], [35.9481824, 35.2266962], [35.948126, 35.2266797], [35.9480744, 35.2266321], [35.9480732, 35.2265787], [35.9481128, 35.2265404], [35.9485876, 35.2263529], [35.948637, 35.2261202], [35.9485607, 35.2246387], [35.9484421, 35.224293], [35.946397, 35.2232992], [35.9463602, 35.2232738], [35.9463342, 35.2232407], [35.9463214, 35.2232028], [35.946323, 35.2231635], [35.9463387, 35.2231264], [35.9463697, 35.2230927], [35.9464121, 35.2230689], [35.9464616, 35.2230572], [35.946513, 35.2230589], [35.9465611, 35.2230739], [35.946588, 35.2230917], [35.9466405, 35.2231747], [35.948616, 35.2242007], [35.9488039, 35.2241063], [35.9490127, 35.223946], [35.9490809, 35.2238298], [35.9489284, 35.2237413], [35.9489098, 35.2237089], [35.9489106, 35.2236437], [35.9495532, 35.2211252], [35.9494818, 35.221061], [35.9487197, 35.2212184], [35.9486747, 35.2212437], [35.9486487, 35.2212841], [35.948635, 35.2213471], [35.9486526, 35.2213493], [35.9484267, 35.2222424], [35.9483636, 35.2223909], [35.9478488, 35.2222233], [35.9480784, 35.2213798], [35.9481094, 35.2212698], [35.9479368, 35.2212995], [35.9479202, 35.2212468], [35.9469326, 35.2214629], [35.9469251, 35.22144], [35.9468162, 35.2214608], [35.9467711, 35.2214773], [35.9457564, 35.2226058], [35.9457026, 35.2226945], [35.9456744, 35.22277], [35.9454588, 35.2235548], [35.945462, 35.2236041], [35.9454927, 35.223707], [35.9454923, 35.2237502], [35.9454765, 35.2237887], [35.9454473, 35.2238216], [35.9454073, 35.2238458], [35.9453603, 35.2238591], [35.9453106, 35.2238603], [35.9452628, 35.2238493], [35.9452212, 35.2238271], [35.9451896, 35.2237957], [35.945171, 35.2237581], [35.9451671, 35.2237176], [35.9454233, 35.2227247], [35.9454781, 35.2226186], [35.9455351, 35.2225148], [35.9465561, 35.2213576], [35.9466841, 35.2212408], [35.9469538, 35.2211427], [35.9494731, 35.2205999], [35.9498734, 35.2191027], [35.9499766, 35.2180385], [35.950221, 35.2162296], [35.9501841, 35.2160655], [35.9501737, 35.2160192], [35.9499881, 35.2158212], [35.9498087, 35.2157635], [35.9495724, 35.2157321], [35.9493693, 35.2156695], [35.9493281, 35.2156142], [35.9493392, 35.2155494], [35.9494354, 35.21552], [35.9494982, 35.2154707], [35.949491, 35.2154008], [35.949518, 35.2153441], [35.9496357, 35.2153108], [35.9498155, 35.2153402], [35.9498466, 35.2153738], [35.9498483, 35.2154011], [35.9498786, 35.2154106], [35.9499191, 35.2154131], [35.94999, 35.2153837], [35.9500544, 35.2153097], [35.9500438, 35.215064], [35.9500316, 35.2150115], [35.9499131, 35.2149543], [35.9498151, 35.2149429], [35.9497592, 35.2149625], [35.9497193, 35.2149811], [35.9497051, 35.2150457], [35.9496676, 35.2151032], [35.9495705, 35.2151319], [35.9494759, 35.2151419], [35.9494038, 35.2150944], [35.9491808, 35.2144573], [35.9491938, 35.2143499], [35.9492311, 35.2142903], [35.9493023, 35.214256], [35.9493719, 35.2142506], [35.9494512, 35.2142769], [35.9495228, 35.2143887], [35.9496122, 35.2144092], [35.9496926, 35.2143902], [35.9497679, 35.2143254], [35.9498271, 35.2142524], [35.9498703, 35.2141542], [35.9498774, 35.2140249], [35.9498182, 35.2138813], [35.9496345, 35.2136902], [35.9493368, 35.2136721], [35.9492881, 35.2138194], [35.9491159, 35.2138428], [35.9489897, 35.2136647], [35.9479802, 35.2136224], [35.9478999, 35.2136288], [35.9478407, 35.213659], [35.9478145, 35.2137418], [35.9477808, 35.213769], [35.9477292, 35.2137638], [35.947691, 35.2137375], [35.9477002, 35.2136757], [35.9477197, 35.2136022], [35.9476859, 35.2135685], [35.9476391, 35.2135313], [35.9476461, 35.2134792], [35.9476872, 35.2134326], [35.9477357, 35.2134138], [35.9491762, 35.2134431], [35.9497587, 35.2134916], [35.950275, 35.2125014], [35.9509886, 35.2104041], [35.9520828, 35.2068552], [35.9524179, 35.205622], [35.9527362, 35.2044732], [35.952946, 35.2033611], [35.9530233, 35.2025124], [35.9532857, 35.2006838], [35.9534222, 35.1992886], [35.9533999, 35.1989839], [35.9533588, 35.1988284], [35.9533149, 35.1987506], [35.9532689, 35.1987148], [35.9527574, 35.1935417], [35.9527737, 35.193488], [35.9528402, 35.1933967], [35.9528574, 35.1933396], [35.9524813, 35.1918585], [35.9517988, 35.19061], [35.9515634, 35.1902322], [35.9510019, 35.189593], [35.9502639, 35.1889157], [35.9492957, 35.1885431], [35.9484774, 35.1884962], [35.9483485, 35.1885082], [35.9481348, 35.1885881], [35.9479557, 35.1886338], [35.9477722, 35.1886822], [35.9475542, 35.1886933], [35.9473978, 35.1886862], [35.9469189, 35.1885972], [35.9464794, 35.1884799], [35.9461926, 35.1883452], [35.9460279, 35.1882225], [35.9457802, 35.1880541], [35.9455765, 35.1878208], [35.9455586, 35.1877556], [35.9455285, 35.1877075], [35.9454558, 35.1876574], [35.9453704, 35.1876125], [35.9453088, 35.187658], [35.9452864, 35.1876623], [35.9452491, 35.1876391], [35.9452499, 35.1876205], [35.9453066, 35.1875787], [35.945154, 35.1874999], [35.9449235, 35.1874665], [35.9448267, 35.1874404], [35.9447214, 35.1873911], [35.9446058, 35.1875052], [35.9446051, 35.1876837], [35.9445551, 35.1876838], [35.9445496, 35.1876844], [35.9445083, 35.1876103], [35.9445034, 35.1875488], [35.9445249, 35.1874801], [35.9447267, 35.1872399], [35.9446796, 35.1871591], [35.9446048, 35.1870889], [35.9444634, 35.1870016], [35.9442453, 35.186955], [35.9441395, 35.1869324], [35.9440576, 35.1869263], [35.9439083, 35.1869151], [35.9436573, 35.1869357], [35.9432976, 35.1870004], [35.942731, 35.1871857], [35.9426574, 35.1872013], [35.9425993, 35.1871933], [35.9425498, 35.1871644], [35.94253, 35.1871171], [35.9425396, 35.18702], [35.9425537, 35.1869958], [35.942584, 35.1869744], [35.9426229, 35.1869658], [35.9426548, 35.186973], [35.9436972, 35.1866669], [35.9436713, 35.1866096], [35.9437865, 35.1865775], [35.9439283, 35.1863899], [35.9439191, 35.1860058], [35.9438539, 35.1859602], [35.9428388, 35.1860503], [35.9428115, 35.1858297], [35.9438233, 35.1857382], [35.9438927, 35.1856498], [35.9438324, 35.1852679], [35.9437391, 35.185218], [35.9427316, 35.1853017], [35.9427041, 35.1850807], [35.9437181, 35.1850001], [35.9437791, 35.1849364], [35.9437637, 35.1848172], [35.9424391, 35.1839161]]}}, {"type": "Feature", "properties": {"role": "aoi"}, "geometry": {"type": "Polygon", "coordinates": [[[35.9, 35.18], [36.0, 35.18], [36.0, 35.27], [35.9, 35.27], [35.9, 35.18]]]}}]}