{"type": "FeatureCollection", "features": [{"type": "Feature", "properties": {"name": "مرفأ اللاذقية (Port of Latakia) — OSM way 722818042", "role": "port_boundary", "source": "OpenStreetMap (© OpenStreetMap contributors)", "osm_id": 722818042}, "geometry": {"type": "Polygon", "coordinates": [[[35.7617361, 35.508081], [35.7626366, 35.5094002], [35.7626786, 35.5094566], [35.7625323, 35.5095289], [35.7662242, 35.5144589], [35.7684667, 35.5133491], [35.7677333, 35.5115378], [35.7681289, 35.5114088], [35.7681504, 35.5114667], [35.7686422, 35.5113229], [35.7691212, 35.5124805], [35.7708405, 35.5120695], [35.771951, 35.5142864], [35.7705483, 35.514599], [35.7690154, 35.514437], [35.7689792, 35.5143431], [35.7685205, 35.514341], [35.7684635, 35.5143746], [35.7685081, 35.5144237], [35.767245, 35.5162263], [35.769058, 35.5208892], [35.7684628, 35.521036], [35.7709301, 35.5274353], [35.7705393, 35.5277903], [35.7702166, 35.5280695], [35.7699286, 35.5283183], [35.7663095, 35.5255865], [35.7659762, 35.5258783], [35.766177, 35.5260254], [35.7661498, 35.5260754], [35.7661293, 35.5261405], [35.7660888, 35.5265403], [35.7660864, 35.5267244], [35.7660843, 35.5268183], [35.7660617, 35.5269067], [35.7656699, 35.5272913], [35.7655875, 35.5273498], [35.7655271, 35.5274116], [35.765487, 35.5274939], [35.7654798, 35.5275594], [35.7655079, 35.5276479], [35.7655675, 35.5277489], [35.7669649, 35.5288014], [35.7684696, 35.5299081], [35.7713363, 35.5320479], [35.7717929, 35.5324427], [35.7720442, 35.5327293], [35.7722081, 35.5329959], [35.7722717, 35.5332369], [35.7724135, 35.5337836], [35.7724588, 35.5341978], [35.7724907, 35.5345355], [35.7724605, 35.5348429], [35.7724182, 35.5351606], [35.7722902, 35.5357769], [35.7720228, 35.5364225], [35.7716212, 35.5373992], [35.7713838, 35.5377811], [35.7712872, 35.5379525], [35.7707796, 35.5383998], [35.7694914, 35.5391421], [35.7685767, 35.5398939], [35.7695906, 35.5407823], [35.7692767, 35.5411686], [35.7691991, 35.5411357], [35.7691491, 35.5412111], [35.7704205, 35.5417327], [35.7706179, 35.5415919], [35.7707853, 35.5416629], [35.7708218, 35.5418561], [35.7715577, 35.542071], [35.7723141, 35.5423765], [35.7728707, 35.5425518], [35.7731711, 35.5425693], [35.7747161, 35.5421589], [35.7751774, 35.5418796], [35.7756226, 35.5415108], [35.7760465, 35.5409542], [35.7783518, 35.5355517], [35.7786457, 35.5348456], [35.7786028, 35.5347321], [35.7780084, 35.5345302], [35.77812, 35.5341951], [35.7782488, 35.5342038], [35.7783216, 35.5338915], [35.7775891, 35.5325724], [35.7769895, 35.532782], [35.7757105, 35.5303961], [35.7753012, 35.5298], [35.775191, 35.5296395], [35.7749737, 35.5295784], [35.7747913, 35.5295762], [35.7746059, 35.5295955], [35.7742648, 35.5286108], [35.7738678, 35.5286963], [35.7738141, 35.5285481], [35.7737581, 35.5285595], [35.7731979, 35.5271266], [35.7735008, 35.5270637], [35.7731657, 35.5265701], [35.7729295, 35.5258082], [35.7724842, 35.5247255], [35.7720106, 35.5234876], [35.7714386, 35.5220009], [35.7706988, 35.5200483], [35.770763, 35.5193949], [35.7703875, 35.5186875], [35.7700568, 35.5185246], [35.7700174, 35.518276], [35.7700975, 35.5176312], [35.7706439, 35.5176666], [35.7706879, 35.5174868], [35.7706828, 35.5173632], [35.770656, 35.5170794], [35.7705358, 35.5168374], [35.770466, 35.5164706], [35.7705572, 35.5160863], [35.7707329, 35.5157075], [35.7710847, 35.5153758], [35.771442, 35.5152085], [35.7717785, 35.5151223], [35.7722157, 35.515095], [35.7727034, 35.5151378], [35.7729762, 35.5151005], [35.7732283, 35.5152162], [35.774489, 35.5152238], [35.7744945, 35.5134985], [35.7724157, 35.511391], [35.7722444, 35.5108818], [35.7721612, 35.5106636], [35.7720106, 35.5090392], [35.7715982, 35.5045897], [35.771461, 35.5043288], [35.7712336, 35.5044195], [35.7696831, 35.5050754], [35.7684196, 35.505509], [35.7671052, 35.5060984], [35.7664673, 35.5065611], [35.7662897, 35.5069693], [35.7654913, 35.5072634], [35.7647628, 35.5062561], [35.7641141, 35.506547], [35.7641673, 35.5066359], [35.764001, 35.5067014], [35.7641128, 35.5068812], [35.7630118, 35.5074249], [35.7617361, 35.508081]]]}}, {"type": "Feature", "properties": {"name": "Breakwater — OSM way 145168166", "role": "breakwater", "source": "OpenStreetMap (© OpenStreetMap contributors)", "osm_id": 145168166}, "geometry": {"type": "LineString", "coordinates": [[35.7698419, 35.6119723], [35.7699287, 35.6119527], [35.7698538, 35.6119368], [35.7691334, 35.6115324], [35.7686019, 35.6112472]]}}, {"type": "Feature", "properties": {"name": "coastline_seg_0", "role": "coastline", "source": "OpenStreetMap (© OpenStreetMap contributors)"}, "geometry": {"type": "LineString", "coordinates": [[35.7795515, 35.4965075], [35.7797029, 35.4966681], [35.77973, 35.4967761], [35.7797993, 35.496965], [35.7798446, 35.4970315], [35.7799787, 35.4970253], [35.7799078, 35.4969356], [35.7799319, 35.4968865], [35.7799982, 35.4968178], [35.7801309, 35.4968227], [35.7801519, 35.4969012], [35.7802665, 35.4969822], [35.7803689, 35.4970902], [35.7804051, 35.4972864], [35.7804202, 35.4974263], [35.7804835, 35.4975416], [35.7805588, 35.4973601], [35.780613, 35.497387], [35.7807186, 35.4976954], [35.7807577, 35.497851], [35.7807276, 35.4979712], [35.780827, 35.4980595], [35.7808752, 35.498219], [35.7808752, 35.4983294], [35.7808849, 35.4985715], [35.7810199, 35.4986214], [35.7812278, 35.4986386], [35.7814961, 35.4986214], [35.781472, 35.4982117], [35.7815503, 35.4981184], [35.7816166, 35.4981601], [35.7816588, 35.4983343], [35.7817854, 35.4983343], [35.7817643, 35.4984472], [35.781912, 35.4984374], [35.781924, 35.4985502], [35.7820398, 35.4985588], [35.7822229, 35.4988865], [35.7821632, 35.499001], [35.7821931, 35.4991363], [35.7822996, 35.4992022], [35.7822783, 35.4995319], [35.7821931, 35.4995672], [35.7820567, 35.4995631], [35.7819587, 35.499688], [35.7819416, 35.499806], [35.7818094, 35.4998229], [35.7816518, 35.5000697], [35.7816348, 35.5002987], [35.781801, 35.5004583], [35.7816902, 35.5005034], [35.7816434, 35.5007638], [35.7818762, 35.5010136], [35.7820482, 35.5010551], [35.7822384, 35.5009839], [35.7820221, 35.5012586], [35.7820308, 35.5013017], [35.7822327, 35.5014784], [35.7823827, 35.5014953], [35.7823864, 35.5015422], [35.7823713, 35.5016452], [35.7824105, 35.5017016], [35.7827514, 35.5017143], [35.7827785, 35.5018268], [35.7825033, 35.5026107], [35.7825465, 35.5028915], [35.7826445, 35.5031171], [35.7827723, 35.5030962], [35.7828618, 35.5033599], [35.7830421, 35.5040256], [35.7831645, 35.5044737], [35.7833221, 35.5046021], [35.7833562, 35.5049108], [35.7834457, 35.5052092], [35.7835963, 35.5053291], [35.7835267, 35.5054348], [35.7836716, 35.5057817], [35.7839689, 35.5060462], [35.7847414, 35.5062883], [35.7867766, 35.506479], [35.7875786, 35.5064825], [35.7876674, 35.5067795], [35.7892689, 35.5067524], [35.7906561, 35.5066794], [35.791708, 35.5064709], [35.7925272, 35.506055], [35.7931005, 35.5060838], [35.793696, 35.5063836], [35.7945265, 35.5062943], [35.7968262, 35.5056377], [35.797993, 35.5052325], [35.7980854, 35.5052701], [35.7981223, 35.5054055], [35.7983318, 35.5053328], [35.7984334, 35.5052801], [35.7983934, 35.5052099], [35.7985597, 35.5051322], [35.7986552, 35.5051723], [35.7987383, 35.5053077], [35.7992203, 35.5050536], [35.7995259, 35.5051812], [35.800137, 35.5050026], [35.8014376, 35.5044732], [35.8014063, 35.5042691], [35.8018635, 35.5040034], [35.8024405, 35.5042309], [35.804172, 35.5033443], [35.8062169, 35.5023238], [35.8100954, 35.4999109], [35.8102491, 35.4998227], [35.8108612, 35.4997182], [35.8167947, 35.4963674]]}}, {"type": "Feature", "properties": {"name": "coastline_seg_1", "role": "coastline", "source": "OpenStreetMap (© OpenStreetMap contributors)"}, "geometry": {"type": "LineString", "coordinates": [[35.7332137, 35.5632279], [35.7330187, 35.5626873], [35.7331362, 35.5623171], [35.7329222, 35.5619469], [35.7327962, 35.5613352], [35.7328017, 35.5612236], [35.7330217, 35.5612015], [35.7328529, 35.5609759], [35.7330187, 35.5608852], [35.7332025, 35.5608877], [35.7332719, 35.5607405], [35.7334286, 35.5607185], [35.7334949, 35.5605787], [35.7340796, 35.5603188], [35.7343358, 35.5602109], [35.7345528, 35.5602256], [35.7346994, 35.5600984], [35.7351436, 35.5602722], [35.7352129, 35.5605052], [35.7351345, 35.5607381], [35.7349031, 35.5609955], [35.7353666, 35.5614369], [35.7357252, 35.5615594], [35.7361593, 35.5615619], [35.736693, 35.5614516], [35.7373197, 35.5611377], [35.7379105, 35.5610446], [35.738706, 35.5605968], [35.7389835, 35.5604855], [35.7391684, 35.5602033], [35.7394748, 35.5598063], [35.7396374, 35.5594619], [35.7395531, 35.5592448], [35.7392427, 35.559061], [35.7389486, 35.5588455], [35.738536, 35.5585554], [35.7382014, 35.5582021], [35.7380849, 35.5580072], [35.7381393, 35.5579509], [35.7383019, 35.5579381], [35.7384004, 35.5579965], [35.738542, 35.557899], [35.738547, 35.5577458], [35.7386049, 35.5577336], [35.7387128, 35.557833], [35.7387988, 35.5578235], [35.7388649, 35.5577191], [35.7388362, 35.5576503], [35.7386397, 35.5576302], [35.7385794, 35.5575005], [35.7385605, 35.5573228], [35.7386556, 35.5572478], [35.7394187, 35.5572099], [35.7396227, 35.5568436], [35.7398643, 35.556844], [35.7399525, 35.556999], [35.7399303, 35.5571761], [35.7398881, 35.5573024], [35.7402808, 35.5575261], [35.7404964, 35.5576944], [35.7408988, 35.5577766], [35.7412018, 35.5577957], [35.7416117, 35.5576829], [35.7416569, 35.5576094], [35.7420457, 35.5573372], [35.7431168, 35.556631], [35.7428384, 35.5561406], [35.742631, 35.5556659], [35.7429941, 35.5556063], [35.7432848, 35.5562913], [35.743393, 35.5563049], [35.7436552, 35.5562534], [35.7437879, 35.5561553], [35.7439795, 35.5559555], [35.744041, 35.5556772], [35.7439325, 35.5554565], [35.7439868, 35.5553608], [35.7442482, 35.5553439], [35.7444479, 35.5552554], [35.7445263, 35.5550543], [35.744671, 35.5549342], [35.7448458, 35.5548876], [35.7450688, 35.5547699], [35.7450688, 35.5546742], [35.7451502, 35.5546178], [35.7453431, 35.5545811], [35.7454154, 35.554532], [35.7454456, 35.5544707], [35.7454516, 35.554331], [35.7457656, 35.5541171], [35.7461479, 35.5541568], [35.7463227, 35.5541005], [35.7467266, 35.5539729], [35.7471709, 35.5540622], [35.7475946, 35.553713], [35.747884, 35.5535929], [35.7481643, 35.553328], [35.7482083, 35.5531537], [35.7487912, 35.5528597], [35.7490353, 35.5527003], [35.7493183, 35.5524411], [35.7494324, 35.5523365], [35.7498254, 35.5518426], [35.7502238, 35.5513785], [35.7505361, 35.5514117], [35.7512333, 35.5510286], [35.7512197, 35.5507929], [35.751532, 35.5506161], [35.7520496, 35.5508816], [35.7529976, 35.5500651], [35.7530836, 35.5500634], [35.7531802, 35.5501368], [35.7530676, 35.5502842], [35.7531002, 35.550298], [35.7530754, 35.55035], [35.7530441, 35.5503415], [35.7528902, 35.5507172], [35.7529137, 35.5507788], [35.7529671, 35.5508224], [35.7530402, 35.5509942], [35.7531146, 35.5510642], [35.7531693, 35.551095], [35.7532593, 35.5511152], [35.7535295, 35.5511014], [35.7536077, 35.5508339], [35.753536, 35.5507894], [35.7534786, 35.5507299], [35.7534629, 35.5507044], [35.753459, 35.5506737], [35.7538895, 35.5507575], [35.7538543, 35.5508042], [35.7537642, 35.550836], [35.7536769, 35.5508467], [35.7536155, 35.5511056], [35.753879, 35.5512945], [35.754042, 35.551407], [35.7542155, 35.5514919], [35.7542164, 35.5514897], [35.7543916, 35.5510345], [35.7544686, 35.5510557], [35.7544386, 35.5511343], [35.7546564, 35.5511852], [35.754582, 35.5513635], [35.7546289, 35.5513823], [35.7544629, 35.5517743], [35.7544907, 35.5517795], [35.7545194, 35.5517488], [35.7553034, 35.5519037], [35.7553164, 35.5518751], [35.7553294, 35.5518649], [35.7553525, 35.5518688], [35.7553587, 35.5518771], [35.7553616, 35.5518876], [35.75595, 35.5516823], [35.7563508, 35.5514929], [35.756302, 35.5513913], [35.7561656, 35.5511673], [35.7562127, 35.5510307], [35.7562969, 35.5510018], [35.7563022, 35.5508767], [35.756314, 35.550658], [35.7563123, 35.5505468], [35.7563055, 35.5505195], [35.7563271, 35.5504085], [35.7563501, 35.5502758], [35.7563942, 35.5501417], [35.7564747, 35.550062], [35.7565163, 35.5499636], [35.7565186, 35.5498775], [35.756546, 35.5498003], [35.7565845, 35.5497033], [35.7565654, 35.5496336], [35.7565394, 35.5495879], [35.7563719, 35.5496297], [35.7562737, 35.5496395], [35.7562595, 35.5495897], [35.756322, 35.5495397], [35.7565804, 35.549489], [35.756962, 35.5494328], [35.7569372, 35.5489513], [35.7566711, 35.548552], [35.7561131, 35.5483366], [35.7558799, 35.5482203], [35.7556672, 35.5484944], [35.7556863, 35.5486085], [35.7555984, 35.5486568], [35.7555556, 35.5486935], [35.7555105, 35.5487012], [35.7554447, 35.5487431], [35.7554772, 35.5487683], [35.7554835, 35.5487921], [35.7554764, 35.548823], [35.7554707, 35.5488314], [35.7553148, 35.5490603], [35.7546051, 35.5490926], [35.7544733, 35.5491378], [35.7542891, 35.5491955], [35.7541252, 35.5491822], [35.7540026, 35.5490797], [35.7539276, 35.5489387], [35.7539454, 35.5487909], [35.754177, 35.5487774], [35.7544032, 35.5486744], [35.754465, 35.5486063], [35.7545074, 35.5485491], [35.7545845, 35.5483238], [35.7546479, 35.5480916], [35.7545469, 35.5479412], [35.7543343, 35.547785], [35.75427, 35.5477168], [35.7537112, 35.5472909], [35.7534885, 35.5472049], [35.7532394, 35.5471943], [35.7531194, 35.5472007], [35.7530124, 35.5472463], [35.7529211, 35.5473227], [35.7528415, 35.5474395], [35.7529654, 35.547622], [35.7530854, 35.5477133], [35.7529289, 35.5478343], [35.7527619, 35.5477643], [35.7526863, 35.5477823], [35.752592, 35.5477738], [35.7521494, 35.5475989], [35.7519904, 35.5474556], [35.751956, 35.5473157], [35.7519581, 35.5471496], [35.7530491, 35.5447877], [35.7531169, 35.5447006], [35.7532033, 35.5446353], [35.7532995, 35.544638], [35.7534026, 35.5446423], [35.7534639, 35.5446868], [35.7535174, 35.5447389], [35.7535396, 35.5448174], [35.7535396, 35.5449023], [35.7532977, 35.5453716], [35.7534344, 35.5454139], [35.7534172, 35.545457], [35.7531044, 35.5453587], [35.752795, 35.5460302], [35.7536168, 35.5462796], [35.7539285, 35.5456177], [35.7537207, 35.5455524], [35.7537428, 35.5455094], [35.7541359, 35.5456311], [35.754119, 35.5456672], [35.7544712, 35.5457903], [35.7546199, 35.5458646], [35.7546734, 35.5459219], [35.7547164, 35.5460036], [35.7547281, 35.5461469], [35.7545664, 35.54667], [35.7545772, 35.5467772], [35.7546012, 35.5467904], [35.7547074, 35.5468403], [35.7548408, 35.5468763], [35.7553722, 35.5470255], [35.7556668, 35.546927], [35.7559956, 35.5467981], [35.7561882, 35.5460788], [35.7563492, 35.5454776], [35.7557677, 35.5451045], [35.7554077, 35.5448661], [35.7557879, 35.5447556], [35.7561591, 35.544623], [35.756648, 35.54396], [35.7569845, 35.5439211], [35.7569377, 35.5441073], [35.7571789, 35.5444529], [35.7577862, 35.5448261], [35.757872, 35.544843], [35.7580904, 35.5448859], [35.7582588, 35.5453214], [35.7582151, 35.5454425], [35.7581179, 35.5457121], [35.7583198, 35.5462024], [35.7591965, 35.5465196], [35.7598976, 35.5465214], [35.7608697, 35.5460443], [35.7622365, 35.5452229], [35.7625772, 35.5449631], [35.7629866, 35.5450623], [35.7642252, 35.5442689], [35.7630873, 35.5425756], [35.7630354, 35.5424059], [35.7629469, 35.5420273], [35.7629563, 35.541916], [35.762971, 35.5418734], [35.763002, 35.5418323], [35.7630622, 35.5418101], [35.7631273, 35.5418045], [35.7631709, 35.5418221], [35.7632071, 35.5418494], [35.7632326, 35.5419007], [35.7632339, 35.541964], [35.7634109, 35.5426024], [35.7635514, 35.542793], [35.7641177, 35.5436259], [35.7643564, 35.5439402], [35.7644963, 35.5440404], [35.7645683, 35.5440548], [35.7646447, 35.5440711], [35.7646407, 35.5440919], [35.76487, 35.5441072], [35.7650793, 35.5441661], [35.7651369, 35.5440952], [35.7652187, 35.5440984], [35.7653032, 35.5440788], [35.7653954, 35.5440418], [35.7658423, 35.5438005], [35.7659537, 35.5436936], [35.7660113, 35.5436172], [35.7660452, 35.5435031], [35.765928, 35.5429363], [35.7656787, 35.5425674], [35.7655096, 35.5422835], [35.7652466, 35.5421841], [35.7652871, 35.5421244], [35.7652496, 35.5420349], [35.7644771, 35.5417195], [35.7646903, 35.5413594], [35.7648151, 35.5414053], [35.7646582, 35.5416628], [35.7653166, 35.54194], [35.7654253, 35.5419029], [35.7656465, 35.5415319], [35.7656197, 35.5414402], [35.765153, 35.5412558], [35.7652093, 35.5411663], [35.7656747, 35.541354], [35.7657847, 35.5413136], [35.7660261, 35.5409338], [35.7659979, 35.5408465], [35.7655017, 35.5406414], [35.7655594, 35.5405475], [35.7660663, 35.5407483], [35.7661669, 35.5407014], [35.766439, 35.5402739], [35.7662943, 35.5401994], [35.7661991, 35.5401776], [35.7660153, 35.5400947], [35.7660497, 35.5400416], [35.7647112, 35.5394961], [35.7644845, 35.5395454], [35.7643843, 35.5396691], [35.7642008, 35.5396668], [35.7640994, 35.5396086], [35.7638321, 35.5396626], [35.7628912, 35.540631], [35.7622483, 35.5412611], [35.762275, 35.5412896], [35.7622794, 35.541331], [35.7621957, 35.5414066], [35.7620838, 35.5414496], [35.7620148, 35.5414566], [35.7619571, 35.5414471], [35.7618727, 35.5414238], [35.76181, 35.5413691], [35.76174, 35.5412533], [35.7617426, 35.541151], [35.7617797, 35.5410573], [35.763509, 35.5393572], [35.7638535, 35.5391714], [35.7640627, 35.5390972], [35.7642773, 35.5390383], [35.7645229, 35.5390233], [35.7649291, 35.5390972], [35.7672255, 35.5401797], [35.767343, 35.540206], [35.7674405, 35.5402119], [35.7675388, 35.5401972], [35.7676314, 35.5401569], [35.7675925, 35.5401307], [35.767681, 35.5400445], [35.7677695, 35.5400914], [35.7678124, 35.5400248], [35.7679841, 35.5400423], [35.768137, 35.5400139], [35.7682292, 35.5399367], [35.768314, 35.5398], [35.7682684, 35.539728], [35.7687405, 35.5394901], [35.7691026, 35.5392009], [35.7693158, 35.5391202], [35.7696269, 35.5387829], [35.7704886, 35.5383234], [35.7709184, 35.537839], [35.7709654, 35.5377342], [35.7709332, 35.5376174], [35.7711115, 35.5375956], [35.7712913, 35.5374865], [35.7714468, 35.5372944], [35.7715407, 35.5370947], [35.7720228, 35.5364225], [35.7722902, 35.5357769], [35.7724182, 35.5351606], [35.7724605, 35.5348429], [35.7724907, 35.5345355], [35.7724588, 35.5341978], [35.7724135, 35.5337836], [35.7722717, 35.5332369], [35.7722081, 35.5329959], [35.7720442, 35.5327293], [35.7717929, 35.5324427], [35.7713363, 35.5320479], [35.7684696, 35.5299081], [35.7669649, 35.5288014], [35.7655675, 35.5277489], [35.7655079, 35.5276479], [35.7654798, 35.5275594], [35.765487, 35.5274939], [35.7655271, 35.5274116], [35.7655875, 35.5273498], [35.7656699, 35.5272913], [35.7660617, 35.5269067], [35.7660843, 35.5268183], [35.7660864, 35.5267244], [35.7660888, 35.5265403], [35.7661293, 35.5261405], [35.7661498, 35.5260754], [35.766177, 35.5260254], [35.7659762, 35.5258783], [35.7663095, 35.5255865], [35.7699286, 35.5283183], [35.7702166, 35.5280695], [35.7705393, 35.5277903], [35.7709301, 35.5274353], [35.7684628, 35.521036], [35.769058, 35.5208892], [35.767245, 35.5162263], [35.7685081, 35.5144237], [35.7684635, 35.5143746], [35.7685205, 35.514341], [35.7689792, 35.5143431], [35.7690154, 35.514437], [35.7705483, 35.514599], [35.771951, 35.5142864], [35.7708405, 35.5120695], [35.7691212, 35.5124805], [35.7686422, 35.5113229], [35.7681504, 35.5114667], [35.7681289, 35.5114088], [35.7677333, 35.5115378], [35.7684667, 35.5133491], [35.7662242, 35.5144589], [35.7625323, 35.5095289], [35.7626786, 35.5094566], [35.7626366, 35.5094002], [35.7617186, 35.5081268], [35.7609686, 35.5084836], [35.760752, 35.5086123], [35.7604405, 35.5088569], [35.7601332, 35.5091684], [35.7598596, 35.5094952], [35.7597361, 35.5097628], [35.7596666, 35.510018], [35.7596424, 35.51028], [35.7596023, 35.5106671], [35.7596022, 35.5109088], [35.7596386, 35.5110946], [35.7597494, 35.5114859], [35.762231, 35.5167557], [35.7622727, 35.5168379], [35.7625473, 35.517404], [35.7627938, 35.5178762], [35.7628021, 35.518016], [35.7628737, 35.51813], [35.7629378, 35.5181451], [35.7630024, 35.5182462], [35.7627831, 35.51853], [35.7554412, 35.5319773], [35.75552, 35.5320609], [35.7555509, 35.5322367], [35.755376, 35.5325351], [35.7552641, 35.532612], [35.7551351, 35.5326334], [35.7548897, 35.5325369], [35.7548323, 35.5324031], [35.7548602, 35.532223], [35.7620513, 35.5191048], [35.7621684, 35.5186496], [35.7622056, 35.5176592], [35.7621054, 35.5171587], [35.7594817, 35.5115632], [35.7593224, 35.5111413], [35.759255, 35.510843], [35.7592559, 35.5106307], [35.7594027, 35.5097334], [35.7595276, 35.5094114], [35.759783, 35.5090223], [35.760116, 35.5086938], [35.7605666, 35.5083538], [35.7615032, 35.5079163], [35.761631, 35.5078592], [35.7628334, 35.5073338], [35.7627109, 35.5071534], [35.762708, 35.5070567], [35.7630633, 35.5066365], [35.7635771, 35.5061969], [35.7635802, 35.5059619], [35.7637293, 35.5059029], [35.7636654, 35.5057953], [35.7635631, 35.505778], [35.7636185, 35.5056726], [35.7640234, 35.5056427], [35.7642919, 35.5056392], [35.7645093, 35.5056704], [35.7646244, 35.505556], [35.7647635, 35.5055436], [35.7647778, 35.5057745], [35.7648957, 35.5058816], [35.7650293, 35.505837], [35.7651656, 35.5057398], [35.7652466, 35.5058127], [35.7654341, 35.5057433], [35.7655109, 35.5055317], [35.765741, 35.5054553], [35.7659115, 35.5056531], [35.7662908, 35.5056809], [35.7671708, 35.5053548], [35.7670824, 35.5051129], [35.7678422, 35.5047649], [35.7679445, 35.5044977], [35.7680937, 35.5045532], [35.7680553, 35.5047059], [35.7681278, 35.5047267], [35.7686222, 35.5045914], [35.7689252, 35.5045534], [35.7698757, 35.5043687], [35.7704934, 35.5037593], [35.7708115, 35.5036859], [35.7716253, 35.5029955], [35.7718823, 35.5027676], [35.7720179, 35.5027676], [35.7721535, 35.5026572], [35.7722154, 35.5024714], [35.7722741, 35.5024045], [35.7723766, 35.5023628], [35.7724368, 35.5024045], [35.7725182, 35.5023505], [35.7725905, 35.5022769], [35.7725664, 35.5021739], [35.7726327, 35.5021788], [35.772687, 35.5021567], [35.7726749, 35.5020463], [35.7727503, 35.5020046], [35.7728768, 35.5020855], [35.7729552, 35.5020267], [35.7730155, 35.5019383], [35.7730185, 35.5017666], [35.773142, 35.501747], [35.7731541, 35.5016439], [35.7732566, 35.5016709], [35.773347, 35.5015826], [35.773353, 35.5014329], [35.773573, 35.501352], [35.7737599, 35.5013446], [35.7738503, 35.5013421], [35.7738864, 35.5012489], [35.7739226, 35.5010502], [35.774527, 35.5004097], [35.7746821, 35.5004343], [35.7746851, 35.5003387], [35.7747815, 35.5003092], [35.7749051, 35.5002086], [35.7750106, 35.5002111], [35.775116, 35.5001497], [35.775321, 35.4999486], [35.7752659, 35.4998325], [35.7753571, 35.4997719], [35.7754716, 35.4997621], [35.7755033, 35.4997456], [35.7755892, 35.4997007], [35.7755108, 35.4996271], [35.7755681, 35.4994848], [35.7757711, 35.4993728], [35.7758996, 35.4993646], [35.7760292, 35.4993941], [35.7762462, 35.4993965], [35.7765536, 35.4991413], [35.7765656, 35.4989402], [35.776644, 35.498977], [35.7768218, 35.4987856], [35.7767314, 35.4986433], [35.7769182, 35.498658], [35.7768519, 35.498528], [35.7768369, 35.4982826], [35.7769122, 35.4982262], [35.7769062, 35.4979342], [35.7770922, 35.4978034], [35.7772019, 35.4976727], [35.7770695, 35.4974791], [35.7771097, 35.4973027], [35.7772166, 35.4972104], [35.7773221, 35.4972349], [35.7774245, 35.4973012], [35.7774728, 35.4973797], [35.7775541, 35.4972668], [35.7776415, 35.4971858], [35.7777018, 35.4971122], [35.7776717, 35.4970288], [35.7777525, 35.4969974], [35.7777741, 35.4969405], [35.7780062, 35.4968546], [35.7780454, 35.4966215], [35.778175, 35.4965234], [35.7783045, 35.496489], [35.7784914, 35.4965185], [35.7785034, 35.4965651], [35.7785637, 35.49657], [35.7785276, 35.4964718], [35.7786421, 35.4964743], [35.7787204, 35.4965675], [35.7787897, 35.4965528], [35.7787174, 35.4962412], [35.7791152, 35.4962756], [35.7793925, 35.4963614], [35.7795515, 35.4965075]]}}, {"type": "Feature", "properties": {"name": "coastline_seg_2", "role": "coastline", "source": "OpenStreetMap (© OpenStreetMap contributors)"}, "geometry": {"type": "LineString", "coordinates": [[35.8167947, 35.4963674], [35.8172574, 35.4960866], [35.8225922, 35.4928433], [35.8382126, 35.4830119], [35.8450548, 35.4785465], [35.8545115, 35.4721725], [35.861431, 35.4671216], [35.8649397, 35.464528], [35.8720972, 35.4592126]]}}, {"type": "Feature", "properties": {"name": "coastline_seg_3", "role": "coastline", "source": "OpenStreetMap (© OpenStreetMap contributors)"}, "geometry": {"type": "LineString", "coordinates": [[35.7850064, 35.6329433], [35.7846056, 35.6325939], [35.7843802, 35.6316557], [35.7832315, 35.630269], [35.7819739, 35.6302981], [35.781644, 35.6300216], [35.7821989, 35.6295813], [35.7827964, 35.6295297], [35.783059, 35.6290661], [35.7828995, 35.6285868], [35.7828419, 35.6276601], [35.7831959, 35.6274889], [35.7829721, 35.6272328], [35.7824725, 35.6272409], [35.7817576, 35.6272569], [35.7819401, 35.6267008], [35.7810895, 35.6258006], [35.7807163, 35.6257036], [35.7805213, 35.6255168], [35.7804091, 35.6254114], [35.7801251, 35.6253426], [35.7796061, 35.6253286], [35.7793485, 35.6250134], [35.7793767, 35.6247686], [35.7795336, 35.624616], [35.7800081, 35.624433], [35.7800671, 35.6242231], [35.7800159, 35.6238216], [35.7799233, 35.6234048], [35.779753, 35.6229901], [35.7795782, 35.6226316], [35.7792494, 35.6226809], [35.7794072, 35.6224986], [35.7795125, 35.6224045], [35.7795283, 35.6221845], [35.7793754, 35.6215184], [35.7789678, 35.6207353], [35.7784227, 35.619587], [35.7773927, 35.6182888], [35.7770896, 35.618318], [35.7772623, 35.6178026], [35.7766015, 35.6173447], [35.7760199, 35.6173883], [35.7757029, 35.617018], [35.7749104, 35.6171036], [35.7741435, 35.6177345], [35.7743897, 35.6181292], [35.7740158, 35.6183895], [35.7735706, 35.6183507], [35.7727847, 35.6179151], [35.7721801, 35.6170337], [35.7726146, 35.6147902], [35.7727922, 35.6143552], [35.7737542, 35.6137961], [35.7747545, 35.6139484], [35.7750147, 35.6137268], [35.7747849, 35.6133953], [35.7752586, 35.6130258], [35.7754379, 35.6126875], [35.7759947, 35.61207], [35.7760269, 35.6112746], [35.7752351, 35.6108253], [35.775041, 35.6107566], [35.7751882, 35.6106108], [35.7756492, 35.6105223], [35.7759821, 35.6098561], [35.7757772, 35.6093513], [35.7758476, 35.608862], [35.7756043, 35.6082895], [35.7751166, 35.6079543], [35.7736214, 35.6071154], [35.7720197, 35.6069534], [35.771141, 35.6070842], [35.7702913, 35.6082209], [35.7700929, 35.6082527], [35.7700448, 35.6085794], [35.7700747, 35.6086069], [35.7693477, 35.6088098], [35.7693106, 35.6087228], [35.7694186, 35.6080546], [35.7693171, 35.6075845], [35.7685423, 35.607689], [35.7685607, 35.6088623], [35.7673949, 35.6093602], [35.7672987, 35.6092007], [35.7672362, 35.609097], [35.7668109, 35.6093159], [35.7667583, 35.6094388], [35.7668442, 35.6095129], [35.7676461, 35.6102718], [35.7686193, 35.611196], [35.7687117, 35.6112802], [35.76988, 35.6119248], [35.7701702, 35.6119651], [35.7700247, 35.6121364], [35.7697865, 35.6120836], [35.7691825, 35.6117438], [35.7683837, 35.6111773], [35.7677067, 35.6105231], [35.7671141, 35.6099627], [35.7665378, 35.609493], [35.7662186, 35.609479], [35.7658233, 35.6097411], [35.765304, 35.6096866], [35.7642091, 35.6100547], [35.7638636, 35.6100194], [35.7634441, 35.6082592], [35.7633532, 35.6076093], [35.7633224, 35.6073891], [35.763066, 35.6072508], [35.7629039, 35.6064156], [35.7625413, 35.6058783], [35.7620896, 35.6050374], [35.7621068, 35.6046972], [35.7625317, 35.6045585], [35.7628642, 35.6045999], [35.7631132, 35.6044028], [35.7630391, 35.6042026], [35.7636453, 35.6032164], [35.7634935, 35.6031693], [35.7626084, 35.6040791], [35.7621079, 35.6039675], [35.7610221, 35.6020758], [35.7609988, 35.6020416], [35.7600294, 35.600621], [35.7599079, 35.5998587], [35.7596043, 35.5995255], [35.759394, 35.5991591], [35.7588763, 35.5987844], [35.7587218, 35.5981249], [35.759306, 35.5980259], [35.7598291, 35.598476], [35.7599597, 35.5983915], [35.7600599, 35.5982025], [35.7597035, 35.5975291], [35.759792, 35.5973057], [35.760012, 35.5972115], [35.7604264, 35.5972662], [35.7606657, 35.5971725], [35.7606697, 35.5968873], [35.760386, 35.5965837], [35.7599641, 35.5964567], [35.759184, 35.5965524], [35.7587121, 35.5966065], [35.758076, 35.5969323], [35.757812, 35.5969376], [35.7578743, 35.596576], [35.7591542, 35.5953495], [35.7591067, 35.5946838], [35.7587656, 35.5935827], [35.7583162, 35.5927474], [35.7577981, 35.5923495], [35.7570289, 35.5918437], [35.7564471, 35.5916123], [35.7558675, 35.5916194], [35.7554967, 35.591777], [35.7553228, 35.5920766], [35.7553402, 35.5922431], [35.7552225, 35.5923424], [35.7551049, 35.5925621], [35.7552007, 35.592757], [35.7549872, 35.5927889], [35.7546024, 35.5930293], [35.7544381, 35.5931929], [35.7543989, 35.5933665], [35.7543248, 35.5934303], [35.7541417, 35.5933134], [35.7538816, 35.593317], [35.7537103, 35.5934126], [35.7534662, 35.5934658], [35.7532178, 35.5935721], [35.7531132, 35.5937741], [35.7527907, 35.5937422], [35.7525209, 35.5936033], [35.7520978, 35.5933205], [35.7519148, 35.5932319], [35.7516838, 35.5933205], [35.7513684, 35.5932084], [35.7516707, 35.5929696], [35.7517971, 35.5927322], [35.7516446, 35.5926259], [35.7517579, 35.5924664], [35.7516795, 35.5922467], [35.7522401, 35.5917781], [35.7523157, 35.5911729], [35.7521322, 35.5907407], [35.7517579, 35.5902834], [35.7512497, 35.589952], [35.7503813, 35.5895783], [35.7501595, 35.5892837], [35.7494076, 35.5889186], [35.7485924, 35.588748], [35.7478248, 35.5888173], [35.7476956, 35.5888615], [35.7476103, 35.5888734], [35.7474918, 35.5895571], [35.7473084, 35.5895488], [35.7473057, 35.5894827], [35.7474003, 35.5894921], [35.7475519, 35.5888369], [35.7468773, 35.5887007], [35.7458142, 35.5887057], [35.7449664, 35.5888166], [35.7443207, 35.5890252], [35.7442426, 35.5890505], [35.7445109, 35.5895808], [35.7446333, 35.589565], [35.7446319, 35.5896307], [35.7444394, 35.5896356], [35.7441978, 35.5891935], [35.7440262, 35.5892096], [35.7435504, 35.5893279], [35.7434701, 35.5893829], [35.74372, 35.589713], [35.7437753, 35.5897861], [35.7437406, 35.589809], [35.7437241, 35.5897959], [35.7437445, 35.5897778], [35.7434491, 35.5893897], [35.7431126, 35.5894988], [35.7428776, 35.5896426], [35.7426376, 35.5898718], [35.7431155, 35.5903004], [35.7432381, 35.590195], [35.7433488, 35.5902863], [35.7431901, 35.5904047], [35.7430833, 35.5903205], [35.742612, 35.5898959], [35.7424166, 35.5899542], [35.7419275, 35.5905051], [35.7416348, 35.5907727], [35.7416929, 35.5915219], [35.7418316, 35.591651], [35.7420604, 35.5917627], [35.7420913, 35.591935], [35.7421629, 35.5919256], [35.7422752, 35.5919773], [35.7422457, 35.592015], [35.742127, 35.5922078], [35.7422222, 35.5922513], [35.7421611, 35.5924437], [35.7422819, 35.592436], [35.7422818, 35.5924962], [35.7420786, 35.592527], [35.742018, 35.5929733], [35.7418942, 35.5929109], [35.7417459, 35.5927766], [35.7416346, 35.5927477], [35.741397, 35.5926654], [35.7409773, 35.5924047], [35.7407665, 35.5922665], [35.7403869, 35.5918221], [35.7403678, 35.5917244], [35.7399405, 35.5916031], [35.7393504, 35.5917475], [35.7387158, 35.5914627], [35.7384574, 35.5912164], [35.7383397, 35.5910287], [35.737706, 35.5907747], [35.7372533, 35.5903992], [35.7370496, 35.5901636], [35.7366331, 35.59002], [35.7363751, 35.5897292], [35.7347499, 35.5886579], [35.7342021, 35.5884186], [35.7338309, 35.5881241], [35.7334959, 35.587999], [35.733084, 35.5881646], [35.732765, 35.5881285], [35.7323869, 35.5881536], [35.7319749, 35.5880026], [35.7319477, 35.5878149], [35.7312868, 35.5875866], [35.7302341, 35.5868582], [35.7296843, 35.5865153], [35.729055, 35.5863176], [35.7290596, 35.5861951], [35.7292588, 35.5861067], [35.7299695, 35.5865043], [35.7302502, 35.5865338], [35.7302649, 35.5863658], [35.7301609, 35.5860051], [35.7291997, 35.5854033], [35.7284711, 35.5849802], [35.7275819, 35.5847336], [35.7265783, 35.5847493], [35.726185, 35.5853299], [35.7259134, 35.5853925], [35.7257138, 35.585733], [35.7255422, 35.5856944], [35.7257368, 35.5853189], [35.7258274, 35.585179], [35.7256876, 35.5849631], [35.7249963, 35.5848125], [35.7242975, 35.5850861], [35.7239534, 35.5852702], [35.7237769, 35.5852187], [35.7232791, 35.5852619], [35.7231159, 35.5854396], [35.7223962, 35.5857046], [35.722025, 35.5856641], [35.7214002, 35.5858997], [35.7205556, 35.5863438], [35.7203328, 35.5861905], [35.7207385, 35.5856493], [35.720109, 35.5854405], [35.7196702, 35.5850528], [35.7184874, 35.5854354], [35.7178698, 35.5854953], [35.7177014, 35.5855966], [35.7177014, 35.5857915], [35.7172503, 35.5863463], [35.7165688, 35.5859787], [35.7180118, 35.5838536], [35.7183396, 35.5839518], [35.7182662, 35.5847794], [35.7186412, 35.5850041], [35.7191421, 35.5848173], [35.7196737, 35.5845224], [35.7196827, 35.5840712], [35.7191689, 35.583711], [35.7186895, 35.5833302], [35.7185166, 35.5827887], [35.7177994, 35.5827023], [35.7176964, 35.5825003], [35.7183433, 35.581927], [35.7185249, 35.5819256], [35.7188782, 35.5820505], [35.719168, 35.58233], [35.71971, 35.5823367], [35.7202502, 35.5822602], [35.7205658, 35.5817927], [35.7204623, 35.5809066], [35.720179, 35.5802753], [35.7202198, 35.579353], [35.7205701, 35.578695], [35.7209692, 35.5785628], [35.7213082, 35.5786767], [35.7220968, 35.5791099], [35.7223629, 35.5796437], [35.7227073, 35.5799319], [35.7237094, 35.5801278], [35.7240119, 35.5799603], [35.7236967, 35.5796578], [35.7237097, 35.5793388], [35.7236023, 35.579102], [35.7236095, 35.5789455], [35.7237707, 35.5789278], [35.7240055, 35.579068], [35.7242021, 35.5792644], [35.7243869, 35.5795672], [35.7242898, 35.5801178], [35.7245884, 35.5803641], [35.7255268, 35.5807312], [35.7274273, 35.5811828], [35.7279108, 35.5814288], [35.7280163, 35.5813454], [35.7282454, 35.5815317], [35.7286223, 35.5816396], [35.729602, 35.5819093], [35.7297648, 35.5817524], [35.7298312, 35.5818186], [35.7298402, 35.5819608], [35.7301869, 35.5820197], [35.7304431, 35.5819706], [35.7307476, 35.5820736], [35.7312518, 35.5824131], [35.7315526, 35.5825738], [35.7320018, 35.582689], [35.7324512, 35.5827856], [35.7331245, 35.5832707], [35.7335815, 35.5833142], [35.7340548, 35.5833142], [35.7341844, 35.5834074], [35.7342779, 35.5835177], [35.7345162, 35.5834627], [35.7344949, 35.5836599], [35.7346074, 35.5837914], [35.734926, 35.58391], [35.735529, 35.5838879], [35.7363741, 35.5839477], [35.736361, 35.5840865], [35.7368216, 35.5842572], [35.7371268, 35.5842802], [35.7379136, 35.5841012], [35.7384426, 35.583847], [35.7386522, 35.5837359], [35.7386462, 35.5836673], [35.7387638, 35.5836035], [35.7386613, 35.5834], [35.7387185, 35.5833461], [35.7389251, 35.5835274], [35.7393396, 35.5834196], [35.7399984, 35.5830832], [35.7406342, 35.5826079], [35.7405424, 35.5825076], [35.740612, 35.5824188], [35.7408728, 35.5825294], [35.7419614, 35.5816783], [35.7420803, 35.5815199], [35.7427632, 35.580873], [35.7439858, 35.5795371], [35.7447937, 35.5783783], [35.745089, 35.5775868], [35.7456264, 35.5756305], [35.7457657, 35.5754017], [35.7457103, 35.5750826], [35.7455598, 35.5748429], [35.7453777, 35.5746076], [35.7454119, 35.5744966], [35.7453647, 35.5743715], [35.7454489, 35.5741397], [35.7454595, 35.573909], [35.7451746, 35.5734546], [35.7450049, 35.5733095], [35.7448244, 35.5732256], [35.744371, 35.5731173], [35.7441003, 35.5730683], [35.7439112, 35.5730753], [35.7427729, 35.5728496], [35.7426568, 35.5729706], [35.7426268, 35.573048], [35.7425438, 35.5731427], [35.7424297, 35.5730673], [35.7424733, 35.5730216], [35.7424068, 35.5729713], [35.7423561, 35.5730197], [35.7422777, 35.5729668], [35.7419597, 35.5732893], [35.742098, 35.5733774], [35.7421684, 35.5733732], [35.7422219, 35.5733965], [35.7422493, 35.5734368], [35.7422467, 35.5734962], [35.7421919, 35.5735419], [35.7421202, 35.5735482], [35.7417562, 35.5733626], [35.7417406, 35.5733445], [35.7417341, 35.5733159], [35.7417406, 35.5732925], [35.7422015, 35.5727987], [35.742382, 35.5724614], [35.7423794, 35.5721958], [35.7425081, 35.5720649], [35.7423154, 35.5719494], [35.741874, 35.5720633], [35.7418222, 35.5719914], [35.7422559, 35.5718816], [35.7411061, 35.5708933], [35.7407276, 35.5708657], [35.7398748, 35.5711828], [35.7396182, 35.5718331], [35.7398024, 35.5721638], [35.7399535, 35.5722149], [35.7399132, 35.5723407], [35.7397854, 35.5723476], [35.7396814, 35.5722949], [35.739504, 35.5719732], [35.7394068, 35.5717568], [35.7395893, 35.5713109], [35.7397292, 35.5710717], [35.7408922, 35.5706429], [35.7409172, 35.5704891], [35.7410257, 35.5700593], [35.740972, 35.5695895], [35.7406123, 35.5686516], [35.7402343, 35.5682255], [35.7398109, 35.5681073], [35.7395552, 35.5682356], [35.7392678, 35.5682148], [35.7391251, 35.5681524], [35.7390498, 35.5680567], [35.7392578, 35.5677969], [35.7392547, 35.5675664], [35.7391101, 35.567336], [35.7389262, 35.5671545], [35.7387417, 35.5667775], [35.738396, 35.5666317], [35.7379909, 35.5664346], [35.7378134, 35.5660588], [35.737154, 35.5658193], [35.7370196, 35.5655537], [35.7366419, 35.5654027], [35.736178, 35.5652025], [35.7358971, 35.5650313], [35.7357542, 35.5648314], [35.7354058, 35.5645679], [35.735011, 35.5643619], [35.7347186, 35.5642982], [35.7342789, 35.5640932], [35.7340615, 35.5639868], [35.7339621, 35.5638029], [35.7337421, 35.5636901], [35.7335974, 35.5636141], [35.7333834, 35.5634106], [35.7333924, 35.563315], [35.7332137, 35.5632279]]}}, {"type": "Feature", "properties": {"name": "الشركة العامة لمرفأ اللاذقية (Port HQ)", "role": "port_hq", "source": "OpenStreetMap (© OpenStreetMap contributors)", "osm_id": 977762774}, "geometry": {"type": "Point", "coordinates": [35.7739965, 35.5137853]}}, {"type": "Feature", "properties": {"name": "Area of Interest (port + anchorage + approach waters)", "role": "aoi", "source": "OpenStreetMap (© OpenStreetMap contributors)"}, "geometry": {"type": "Polygon", "coordinates": [[[35.7017361, 35.46932880000001], [35.7017361, 35.5725693], [35.70176017636664, 35.57305938570165], [35.701832173597985, 35.57354475161008], [35.70195139832134, 35.57402072338627], [35.70211670233744, 35.57448271716182], [35.70232649367826, 35.57492628368413], [35.70257875193849, 35.5753471511651], [35.70287104773319, 35.57574126642081], [35.70320056609407, 35.57610483390593], [35.703564133579185, 35.57643435226681], [35.7039582488349, 35.57672664806151], [35.70437911631587, 35.57697890632174], [35.70482268283818, 35.57718869766256], [35.70528467661373, 35.57735400167866], [35.70576064838992, 35.57747322640201], [35.70624601429835, 35.57754522363336], [35.7067361, 35.5775693], [35.7906457, 35.5775693], [35.79113578570165, 35.57754522363336], [35.79162115161008, 35.57747322640201], [35.79209712338627, 35.57735400167866], [35.79255911716182, 35.57718869766256], [35.79300268368413, 35.57697890632174], [35.7934235511651, 35.57672664806151], [35.793817666420814, 35.57643435226681], [35.79418123390593, 35.57610483390593], [35.79451075226681, 35.57574126642081], [35.79480304806151, 35.5753471511651], [35.79505530632174, 35.57492628368413], [35.79526509766256, 35.57448271716182], [35.79543040167866, 35.57402072338627], [35.795549626402014, 35.57354475161008], [35.79562162363336, 35.57305938570165], [35.7956457, 35.5725693], [35.7956457, 35.46932880000001], [35.79562162363336, 35.46883871429836], [35.795549626402014, 35.468353348389925], [35.79543040167866, 35.467877376613735], [35.79526509766256, 35.46741538283818], [35.79505530632174, 35.466971816315876], [35.79480304806151, 35.46655094883491], [35.79451075226681, 35.46615683357919], [35.79418123390593, 35.465793266094074], [35.793817666420814, 35.465463747733196], [35.7934235511651, 35.465171451938495], [35.79300268368413, 35.46491919367826], [35.79255911716182, 35.46470940233745], [35.79209712338627, 35.46454409832135], [35.79162115161008, 35.46442487359799], [35.79113578570165, 35.46435287636665], [35.7906457, 35.464328800000004], [35.7067361, 35.464328800000004], [35.70624601429835, 35.46435287636665], [35.70576064838992, 35.46442487359799], [35.70528467661373, 35.46454409832135], [35.70482268283818, 35.46470940233745], [35.70437911631587, 35.46491919367826], [35.7039582488349, 35.465171451938495], [35.703564133579185, 35.465463747733196], [35.70320056609407, 35.465793266094074], [35.70287104773319, 35.46615683357919], [35.70257875193849, 35.46655094883491], [35.70232649367826, 35.466971816315876], [35.70211670233744, 35.46741538283818], [35.70195139832134, 35.467877376613735], [35.701832173597985, 35.468353348389925], [35.70176017636664, 35.46883871429836], [35.7017361, 35.46932880000001]]]}}]}