{"type": "FeatureCollection", "features": [{"type": "Feature", "properties": {"name": "مرفأ طرطوس (Port of Tartus) — OSM way 160479740", "role": "port_boundary", "source": "OpenStreetMap (© OpenStreetMap contributors)", "osm_id": 160479740}, "geometry": {"type": "Polygon", "coordinates": [[[35.8870229, 34.9276613], [35.8845875, 34.928321], [35.8840725, 34.9288839], [35.8805341, 34.9297811], [35.8803557, 34.9296687], [35.880961, 34.9282725], [35.8810838, 34.9281138], [35.8813445, 34.9272675], [35.8814212, 34.926781], [35.8813634, 34.9262886], [35.8803713, 34.9231325], [35.8803253, 34.9228608], [35.8801846, 34.9185857], [35.8794634, 34.9185823], [35.87903, 34.9182891], [35.8793623, 34.918079], [35.8786851, 34.9172651], [35.8785121, 34.916823], [35.8784588, 34.916542], [35.8784954, 34.9162855], [35.8794303, 34.9161722], [35.8792731, 34.9140571], [35.8789586, 34.9136386], [35.872206, 34.911927], [35.8693383, 34.9112001], [35.8692654, 34.9112861], [35.8690881, 34.9112403], [35.8648927, 34.9101575], [35.8649861, 34.9099071], [35.8629779, 34.9094209], [35.8624708, 34.9087601], [35.8646321, 34.9093058], [35.8659491, 34.9096434], [35.8690578, 34.9104331], [35.8691666, 34.9102036], [35.8692697, 34.9102208], [35.869503, 34.9101361], [35.8697766, 34.9094609], [35.8696774, 34.9092827], [35.8695736, 34.9092333], [35.8694946, 34.9092125], [35.8695562, 34.9090499], [35.8639302, 34.9075887], [35.8636275, 34.9071978], [35.8634479, 34.9069632], [35.8633715, 34.9067664], [35.8632588, 34.906344], [35.8631243, 34.9059979], [35.8630322, 34.9055087], [35.8630736, 34.9054882], [35.8698939, 34.9072513], [35.8700024, 34.9070354], [35.872388, 34.907726], [35.8728978, 34.9064357], [35.8648072, 34.9044191], [35.8649718, 34.9028134], [35.8734112, 34.90497], [35.8736492, 34.9042847], [35.8705142, 34.9034779], [35.8707797, 34.9028006], [35.870859, 34.9026133], [35.8710097, 34.9021924], [35.8703588, 34.9017801], [35.8727775, 34.9009449], [35.8725712, 34.8991826], [35.8707476, 34.8991245], [35.8695984, 34.8992961], [35.8693509, 34.8992044], [35.869059, 34.8989669], [35.8688525, 34.8987084], [35.8610762, 34.9003822], [35.8617632, 34.8999888], [35.8696487, 34.8983097], [35.8697016, 34.8983516], [35.8697364, 34.8983792], [35.8711583, 34.8980899], [35.8715749, 34.8980052], [35.8726185, 34.8977929], [35.8751014, 34.8972878], [35.8751084, 34.8972136], [35.8756721, 34.8970908], [35.8754981, 34.898301], [35.8747987, 34.8981211], [35.8747558, 34.8981135], [35.8739137, 34.9006311], [35.8744427, 34.9016139], [35.8747946, 34.9016664], [35.8748092, 34.9019171], [35.8751004, 34.9019295], [35.8750979, 34.9021498], [35.8751867, 34.9021583], [35.8756789, 34.9022051], [35.8783275, 34.902457], [35.8785844, 34.9022963], [35.8790963, 34.9023618], [35.8791097, 34.9022775], [35.8809252, 34.9024336], [35.8809861, 34.902468], [35.8815829, 34.9046639], [35.881599, 34.9048007], [35.8816017, 34.9049376], [35.8817049, 34.9057871], [35.8819348, 34.9079792], [35.8820608, 34.9082802], [35.8822833, 34.9085021], [35.8826893, 34.9086979], [35.88289, 34.9089867], [35.8830642, 34.9091295], [35.8833141, 34.9092475], [35.8865061, 34.9257758], [35.8870229, 34.9276613]]]}}, {"type": "Feature", "properties": {"name": "breakwater_0", "role": "breakwater", "source": "OpenStreetMap (© OpenStreetMap contributors)"}, "geometry": {"type": "Polygon", "coordinates": [[[35.8786973, 34.8832672], [35.8784125, 34.8831627], [35.8784884, 34.8829331], [35.8784931, 34.8829045], [35.8784928, 34.8828893], [35.8784767, 34.8828646], [35.8784576, 34.8828462], [35.8784375, 34.8828341], [35.8784194, 34.882827], [35.8783976, 34.8828248], [35.8783731, 34.8828253], [35.8783261, 34.8828385], [35.8782847, 34.8828588], [35.8782712, 34.882871], [35.8782604, 34.8828891], [35.878018, 34.8835514], [35.8780217, 34.8835728], [35.8780288, 34.8835863], [35.8780405, 34.8835976], [35.8780807, 34.8836185], [35.878121, 34.8836339], [35.8781397, 34.8836367], [35.8781625, 34.8836339], [35.8781847, 34.8836301], [35.8782095, 34.8836218], [35.8782316, 34.8836064], [35.8782461, 34.8835926], [35.8783519, 34.8833695], [35.8786244, 34.8834374], [35.878652, 34.8833468], [35.8786973, 34.8832672]]]}}, {"type": "Feature", "properties": {"name": "breakwater_1", "role": "breakwater", "source": "OpenStreetMap (© OpenStreetMap contributors)"}, "geometry": {"type": "Polygon", "coordinates": [[[35.8793003, 34.88197], [35.8782805, 34.8816911], [35.8782537, 34.8816746], [35.8782426, 34.8816411], [35.8782403, 34.8816129], [35.8783436, 34.8813313], [35.8783449, 34.8813066], [35.8783408, 34.8812899], [35.8783221, 34.8812735], [35.8783033, 34.8812642], [35.8782564, 34.881251], [35.8782075, 34.8812433], [35.8781826, 34.8812455], [35.8781613, 34.8812513], [35.8781424, 34.8812675], [35.878129, 34.8812906], [35.8779706, 34.8817556], [35.8777951, 34.8822065], [35.8777937, 34.8822279], [35.8778014, 34.8822492], [35.8778299, 34.8822741], [35.8778675, 34.8822928], [35.8779064, 34.8823016], [35.8779305, 34.882306], [35.8779654, 34.8823027], [35.8779877, 34.882293], [35.878005, 34.8822763], [35.878021, 34.8822576], [35.8781347, 34.8819677], [35.8781505, 34.8819584], [35.8781739, 34.8819512], [35.8782148, 34.8819507], [35.8792589, 34.8821859], [35.8792676, 34.8820904], [35.8793003, 34.88197]]]}}, {"type": "Feature", "properties": {"name": "breakwater_2", "role": "breakwater", "source": "OpenStreetMap (© OpenStreetMap contributors)"}, "geometry": {"type": "Polygon", "coordinates": [[[35.8796515, 34.8808731], [35.87969, 34.8807757], [35.8797397, 34.8806456], [35.879397, 34.8805843], [35.8793803, 34.8805738], [35.8793737, 34.8805624], [35.8793725, 34.8805505], [35.8793756, 34.8805359], [35.879446, 34.8803544], [35.8794473, 34.8803307], [35.8794421, 34.8803039], [35.8794238, 34.8802773], [35.879395, 34.8802592], [35.8793461, 34.8802476], [35.8793018, 34.880246], [35.8792656, 34.8802537], [35.8792399, 34.8802618], [35.8792187, 34.8802839], [35.8789813, 34.8809352], [35.8789771, 34.8809557], [35.8789833, 34.8809787], [35.8789967, 34.881004], [35.8790188, 34.8810222], [35.879047, 34.8810354], [35.8790812, 34.8810453], [35.8791094, 34.8810491], [35.8791348, 34.8810442], [35.879166, 34.8810311], [35.8791912, 34.8810112], [35.8792039, 34.880993], [35.8792904, 34.8808054], [35.8792964, 34.8807966], [35.8793051, 34.8807911], [35.8793176, 34.8807851], [35.8793326, 34.880784], [35.8793494, 34.8807864], [35.8796515, 34.8808731]]]}}, {"type": "Feature", "properties": {"name": "breakwater_3", "role": "breakwater", "source": "OpenStreetMap (© OpenStreetMap contributors)"}, "geometry": {"type": "Polygon", "coordinates": [[[35.8797721, 34.8794897], [35.8797866, 34.8793895], [35.8798099, 34.8792823], [35.8792083, 34.8790971], [35.8791928, 34.8790875], [35.8791845, 34.8790733], [35.8791811, 34.87906], [35.8791791, 34.8790449], [35.8791845, 34.8790297], [35.8793011, 34.8787723], [35.8793078, 34.8787393], [35.8793011, 34.8787156], [35.879294, 34.8786974], [35.8792743, 34.8786832], [35.8792502, 34.8786733], [35.8791992, 34.878659], [35.8791704, 34.8786601], [35.8791449, 34.8786628], [35.8791181, 34.8786683], [35.879096, 34.8786773], [35.8790691, 34.8787063], [35.8787312, 34.8796106], [35.878731, 34.8796439], [35.8787399, 34.8796618], [35.878758, 34.8796755], [35.8787902, 34.8796921], [35.878825, 34.8797064], [35.8788619, 34.8797124], [35.8788894, 34.8797102], [35.8789136, 34.8797014], [35.8789441, 34.8796781], [35.8790597, 34.8793994], [35.8790868, 34.8793658], [35.8791228, 34.8793532], [35.879171, 34.8793576], [35.8797721, 34.8794897]]]}}, {"type": "Feature", "properties": {"name": "breakwater_4", "role": "breakwater", "source": "OpenStreetMap (© OpenStreetMap contributors)"}, "geometry": {"type": "Polygon", "coordinates": [[[35.8781998, 34.8845154], [35.8772823, 34.8842633], [35.8774035, 34.8839375], [35.8774129, 34.8839012], [35.8774114, 34.8838686], [35.8774001, 34.8838479], [35.8773827, 34.8838363], [35.8773324, 34.8838226], [35.8772962, 34.8838193], [35.8772559, 34.8838176], [35.8772163, 34.8838271], [35.8771916, 34.8838572], [35.877032, 34.8843061], [35.8768456, 34.8847879], [35.8768456, 34.8848132], [35.8768546, 34.8848292], [35.8768885, 34.8848506], [35.8769421, 34.8848704], [35.8769904, 34.8848726], [35.8770258, 34.8848608], [35.8770481, 34.8848407], [35.877192, 34.8845295], [35.8780331, 34.8847214], [35.8781049, 34.8846207], [35.8781998, 34.8845154]]]}}, {"type": "Feature", "properties": {"name": "breakwater_5", "role": "breakwater", "source": "OpenStreetMap (© OpenStreetMap contributors)"}, "geometry": {"type": "Polygon", "coordinates": [[[35.8931136, 35.0392851], [35.8926824, 35.0391049], [35.8924179, 35.0391563], [35.8923147, 35.0392224], [35.892234, 35.0393766], [35.8923102, 35.0394054], [35.8924208, 35.0393899], [35.892605, 35.0392029], [35.8927881, 35.0392202], [35.893015, 35.0394314], [35.8931136, 35.0392851]]]}}, {"type": "Feature", "properties": {"name": "breakwater_6", "role": "breakwater", "source": "OpenStreetMap (© OpenStreetMap contributors)"}, "geometry": {"type": "LineString", "coordinates": [[35.8697016, 34.8983516], [35.8610229, 34.9002135], [35.8603875, 34.9003641], [35.8600231, 34.9004741], [35.8596879, 34.9005984], [35.8593002, 34.9007873], [35.8588717, 34.9010383], [35.8584637, 34.9012965], [35.8578982, 34.9017292], [35.8576387, 34.9019754], [35.8569771, 34.9027308], [35.8567235, 34.9031444], [35.8564495, 34.9036727], [35.8563446, 34.9039643], [35.854343, 34.9101328], [35.854343, 34.9101792], [35.8543713, 34.9102082], [35.8544315, 34.9102169], [35.8544845, 34.9102097]]}}, {"type": "Feature", "properties": {"name": "breakwater_7", "role": "breakwater", "source": "OpenStreetMap (© OpenStreetMap contributors)"}, "geometry": {"type": "Polygon", "coordinates": [[[35.8760309, 34.8893169], [35.8759347, 34.8892771], [35.875836, 34.8892817], [35.875701, 34.8893353], [35.8751067, 34.8899676], [35.8749563, 34.8901276], [35.8749717, 34.8901692], [35.8749806, 34.8902111], [35.874973, 34.8902531], [35.8749498, 34.8902911], [35.8749147, 34.8903203], [35.8748706, 34.8903395], [35.8748214, 34.8903468], [35.8747719, 34.8903416], [35.8747266, 34.8903243], [35.8746892, 34.8902961], [35.8746642, 34.8902597], [35.874654, 34.8902188], [35.8746596, 34.8901774], [35.8746805, 34.8901393], [35.8755095, 34.8892464], [35.8757423, 34.8891294], [35.875817, 34.8891163], [35.8760914, 34.8891918], [35.8760309, 34.8893169]]]}}, {"type": "Feature", "properties": {"name": "breakwater_8", "role": "breakwater", "source": "OpenStreetMap (© OpenStreetMap contributors)"}, "geometry": {"type": "Polygon", "coordinates": [[[35.8763158, 34.8906901], [35.8761971, 34.8908722], [35.8758579, 34.8906006], [35.875678, 34.8904565], [35.875585, 34.8903551], [35.8753894, 34.8902295], [35.8753712, 34.8901877], [35.8753725, 34.8901297], [35.8754055, 34.8900854], [35.8754483, 34.8900683], [35.8755146, 34.8900695], [35.8756315, 34.8902003], [35.8759374, 34.8904639], [35.8762223, 34.8906713], [35.8762685, 34.8906976], [35.8763158, 34.8906901]]]}}, {"type": "Feature", "properties": {"name": "breakwater_9", "role": "breakwater", "source": "OpenStreetMap (© OpenStreetMap contributors)"}, "geometry": {"type": "Polygon", "coordinates": [[[35.8584788, 34.8589911], [35.8576928, 34.8588224], [35.8576281, 34.8589436], [35.8584827, 34.8591184], [35.8589087, 34.8590823], [35.8604585, 34.8586043], [35.8609759, 34.8583433], [35.861107, 34.8582124], [35.8617161, 34.8572527], [35.8617147, 34.8572338], [35.8617271, 34.8572054], [35.8617221, 34.8571785], [35.861698, 34.8571628], [35.8616683, 34.8571668], [35.861638, 34.8571912], [35.8615997, 34.857213], [35.8615702, 34.8572377], [35.8610709, 34.8580518], [35.8608733, 34.858242], [35.8606927, 34.8583565], [35.8603602, 34.8585102], [35.8589125, 34.8589701], [35.8584788, 34.8589911]]]}}, {"type": "Feature", "properties": {"name": "breakwater_10", "role": "breakwater", "source": "OpenStreetMap (© OpenStreetMap contributors)"}, "geometry": {"type": "Polygon", "coordinates": [[[35.8618108, 34.8558277], [35.8616979, 34.8559342], [35.8616898, 34.8559509], [35.8621213, 34.8563651], [35.8619412, 34.8566604], [35.8619376, 34.8566981], [35.8619192, 34.8567232], [35.8619148, 34.8567383], [35.8619209, 34.856757], [35.8619367, 34.8567716], [35.8619559, 34.856777], [35.8619865, 34.8567773], [35.8620119, 34.856762], [35.8620372, 34.8567376], [35.8620893, 34.8567156], [35.8622774, 34.8563679], [35.8618108, 34.8558277]]]}}, {"type": "Feature", "properties": {"name": "breakwater_11", "role": "breakwater", "source": "OpenStreetMap (© OpenStreetMap contributors)"}, "geometry": {"type": "Polygon", "coordinates": [[[35.9301317, 34.7702338], [35.9300606, 34.7701831], [35.9299479, 34.7701423], [35.9297495, 34.7700828], [35.9296723, 34.7700724], [35.9296475, 34.7700567], [35.9296425, 34.7700338], [35.9296609, 34.7700038], [35.9297099, 34.7699969], [35.9297964, 34.7700145], [35.9298903, 34.7700283], [35.9299862, 34.7700261], [35.9300901, 34.770025], [35.9301601, 34.7700234], [35.9301317, 34.7702338]]]}}, {"type": "Feature", "properties": {"name": "breakwater_12", "role": "breakwater", "source": "OpenStreetMap (© OpenStreetMap contributors)"}, "geometry": {"type": "Polygon", "coordinates": [[[35.9297548, 34.7730572], [35.9296449, 34.7730297], [35.9295335, 34.7730066], [35.9293632, 34.7729922], [35.9291527, 34.7729867], [35.9290923, 34.7729889], [35.9290454, 34.7729735], [35.9290326, 34.7729438], [35.9290373, 34.7729173], [35.9290662, 34.7729052], [35.9291299, 34.7728997], [35.9292425, 34.7729052], [35.9293739, 34.7729228], [35.9295228, 34.7729284], [35.929673, 34.7729195], [35.9297596, 34.7729024], [35.9297548, 34.7730572]]]}}, {"type": "Feature", "properties": {"name": "breakwater_13", "role": "breakwater", "source": "OpenStreetMap (© OpenStreetMap contributors)"}, "geometry": {"type": "Polygon", "coordinates": [[[35.9293404, 34.7757771], [35.9292968, 34.775771], [35.9292398, 34.7757506], [35.9291574, 34.7757154], [35.9290836, 34.7756675], [35.9289917, 34.7756234], [35.9288134, 34.7755612], [35.9287946, 34.7755413], [35.9287926, 34.7755281], [35.9288, 34.7755072], [35.9288301, 34.7755], [35.9290105, 34.7755496], [35.9291413, 34.7755892], [35.9291802, 34.7755892], [35.9292191, 34.7755815], [35.9292908, 34.7755749], [35.9293371, 34.7755771], [35.9293947, 34.7755948], [35.9293404, 34.7757771]]]}}, {"type": "Feature", "properties": {"name": "breakwater_14", "role": "breakwater", "source": "OpenStreetMap (© OpenStreetMap contributors)"}, "geometry": {"type": "LineString", "coordinates": [[35.8874967, 34.9960625], [35.8875941, 34.996061], [35.8876705, 34.9959926]]}}, {"type": "Feature", "properties": {"name": "breakwater_15", "role": "breakwater", "source": "OpenStreetMap (© OpenStreetMap contributors)"}, "geometry": {"type": "LineString", "coordinates": [[35.8930105, 34.9999257], [35.8930955, 34.9998412]]}}, {"type": "Feature", "properties": {"name": "breakwater_16", "role": "breakwater", "source": "OpenStreetMap (© OpenStreetMap contributors)"}, "geometry": {"type": "LineString", "coordinates": [[35.8902937, 34.9987232], [35.8904128, 34.9987733], [35.8904946, 34.9987882]]}}, {"type": "Feature", "properties": {"name": "breakwater_17", "role": "breakwater", "source": "OpenStreetMap (© OpenStreetMap contributors)"}, "geometry": {"type": "Polygon", "coordinates": [[[35.8746152, 34.9155988], [35.8746006, 34.9156401], [35.874277, 34.9155813], [35.8719489, 34.9149839], [35.8683519, 34.9140833], [35.8657751, 34.9134079], [35.8649723, 34.913166], [35.8638823, 34.9127273], [35.8630644, 34.9123209], [35.8624614, 34.9119585], [35.8613148, 34.9111708], [35.8592889, 34.9097572], [35.8592777, 34.9097264], [35.8593294, 34.9096792], [35.8625463, 34.9118969], [35.8631309, 34.9122492], [35.8639398, 34.9126567], [35.8650195, 34.9130902], [35.865791, 34.9133383], [35.868383, 34.9140053], [35.8719821, 34.9149254], [35.8746152, 34.9155988]]]}}, {"type": "Feature", "properties": {"name": "breakwater_18", "role": "breakwater", "source": "OpenStreetMap (© OpenStreetMap contributors)"}, "geometry": {"type": "Polygon", "coordinates": [[[35.8955873, 35.0201221], [35.8956398, 35.0201671], [35.895673, 35.020223], [35.8956835, 35.0202846], [35.8956704, 35.0203459], [35.8956359, 35.0203999], [35.8955831, 35.0204428], [35.8955171, 35.0204708], [35.8954438, 35.0204811], [35.8953701, 35.0204729], [35.8953024, 35.0204467], [35.8952477, 35.020405], [35.8952109, 35.0203516], [35.8951956, 35.0202917], [35.8952032, 35.0202307], [35.8958411, 35.0186177], [35.8959254, 35.0185183], [35.8960626, 35.0184504], [35.8968326, 35.0183724], [35.8968223, 35.018465], [35.8961214, 35.0185441], [35.8960326, 35.0185735], [35.8959559, 35.0186641], [35.8953229, 35.0202362], [35.8953174, 35.0202633], [35.8953201, 35.0202922], [35.8953333, 35.0203192], [35.8953557, 35.0203417], [35.8953854, 35.0203576], [35.8954195, 35.0203654], [35.8954556, 35.0203644], [35.8954895, 35.0203545], [35.8955181, 35.0203365], [35.8955386, 35.0203122], [35.8955491, 35.0202839], [35.8955481, 35.0202528], [35.8955351, 35.0202237], [35.8955113, 35.0201995], [35.8954793, 35.0201829], [35.895471, 35.020149], [35.8954916, 35.0201093], [35.8955263, 35.0201008], [35.8955538, 35.0201074], [35.8955873, 35.0201221]]]}}, {"type": "Feature", "properties": {"name": "breakwater_19", "role": "breakwater", "source": "OpenStreetMap (© OpenStreetMap contributors)"}, "geometry": {"type": "Polygon", "coordinates": [[[35.8712733, 34.895157], [35.8715214, 34.894536], [35.8717122, 34.8946926], [35.8716995, 34.8947213], [35.871599, 34.8947215], [35.8714177, 34.8951933], [35.8712733, 34.895157]]]}}, {"type": "Feature", "properties": {"name": "breakwater_20", "role": "breakwater", "source": "OpenStreetMap (© OpenStreetMap contributors)"}, "geometry": {"type": "Polygon", "coordinates": [[[35.8830421, 34.8680267], [35.8831043, 34.8679455], [35.8833186, 34.8680092], [35.8833831, 34.8679346], [35.8825348, 34.8675457], [35.8824279, 34.8677122], [35.8830421, 34.8680267]]]}}, {"type": "Feature", "properties": {"name": "breakwater_21", "role": "breakwater", "source": "OpenStreetMap (© OpenStreetMap contributors)"}, "geometry": {"type": "Polygon", "coordinates": [[[35.8809528, 34.8700494], [35.8810653, 34.8697458], [35.8806234, 34.8696664], [35.8804371, 34.8700343], [35.8802774, 34.8704854], [35.8802655, 34.8705646], [35.8802821, 34.8706433], [35.8803257, 34.8707147], [35.8803927, 34.8707726], [35.8804772, 34.8708122], [35.8805801, 34.8708305], [35.8806848, 34.8708215], [35.8807808, 34.8707861], [35.8808585, 34.8707278], [35.8809102, 34.8706526], [35.8809306, 34.8705665], [35.8809168, 34.8704796], [35.8808814, 34.8704199], [35.8808946, 34.8702276], [35.880898, 34.8701782], [35.8809528, 34.8700494]]]}}, {"type": "Feature", "properties": {"name": "breakwater_22", "role": "breakwater", "source": "OpenStreetMap (© OpenStreetMap contributors)"}, "geometry": {"type": "Polygon", "coordinates": [[[35.8779442, 34.8775958], [35.8778543, 34.8775679], [35.8777784, 34.8775195], [35.8777232, 34.8774549], [35.8776938, 34.8773798], [35.8776926, 34.877301], [35.8780129, 34.8758521], [35.8781198, 34.8755488], [35.8783192, 34.8751795], [35.8786425, 34.8748062], [35.8789803, 34.8745392], [35.8792919, 34.8743401], [35.8796833, 34.8741681], [35.8800724, 34.8740507], [35.8801235, 34.8740353], [35.8807306, 34.8739608], [35.8815365, 34.8740008], [35.8819262, 34.8740324], [35.8818984, 34.8741595], [35.8810155, 34.8740921], [35.8806844, 34.8741021], [35.8801643, 34.8741858], [35.8797011, 34.8743605], [35.8792614, 34.874585], [35.8787961, 34.8749399], [35.87901, 34.8751262], [35.8789629, 34.8751581], [35.8788825, 34.8752124], [35.8787722, 34.8753133], [35.8786818, 34.8754266], [35.8786131, 34.8755498], [35.8783593, 34.8765692], [35.8783475, 34.8766164], [35.8782229, 34.877117], [35.8782564, 34.8771455], [35.8782987, 34.8772159], [35.8783304, 34.877295], [35.8783306, 34.8773783], [35.8782979, 34.8774597], [35.8782352, 34.8775282], [35.8781491, 34.8775767], [35.8780486, 34.8776], [35.8779442, 34.8775958]]]}}, {"type": "Feature", "properties": {"name": "breakwater_23", "role": "breakwater", "source": "OpenStreetMap (© OpenStreetMap contributors)"}, "geometry": {"type": "Polygon", "coordinates": [[[35.8805961, 34.8773794], [35.8807449, 34.8771908], [35.8807745, 34.8770857], [35.8793494, 34.8768541], [35.8793817, 34.8767363], [35.8792491, 34.8767204], [35.8791991, 34.8767521], [35.8791775, 34.8767934], [35.8791592, 34.8769216], [35.8791935, 34.876977], [35.8792584, 34.8770059], [35.8802759, 34.8771813], [35.8804727, 34.8772685], [35.8805961, 34.8773794]]]}}, {"type": "Feature", "properties": {"name": "breakwater_24", "role": "breakwater", "source": "OpenStreetMap (© OpenStreetMap contributors)"}, "geometry": {"type": "Polygon", "coordinates": [[[35.8759821, 34.9686725], [35.8763214, 34.9687151], [35.8763405, 34.9685434], [35.8762243, 34.9685444], [35.8735155, 34.9683084], [35.8732442, 34.9681934], [35.8730824, 34.9680287], [35.8731187, 34.9678654], [35.8730523, 34.9677995], [35.8729382, 34.9677883], [35.8728623, 34.967831], [35.8728283, 34.9678847], [35.8730502, 34.9682241], [35.8730636, 34.9682446], [35.873449, 34.9684574], [35.8759821, 34.9686725]]]}}, {"type": "Feature", "properties": {"name": "breakwater_25", "role": "breakwater", "source": "OpenStreetMap (© OpenStreetMap contributors)"}, "geometry": {"type": "Polygon", "coordinates": [[[35.8761122, 34.9677161], [35.876124, 34.9676208], [35.8757708, 34.9676147], [35.8753673, 34.9675266], [35.8752653, 34.9677288], [35.8753495, 34.9677555], [35.8754049, 34.9675918], [35.8756767, 34.9676597], [35.8756843, 34.9679192], [35.8757394, 34.9679297], [35.8758101, 34.9676854], [35.8761122, 34.9677161]]]}}, {"type": "Feature", "properties": {"name": "breakwater_26", "role": "breakwater", "source": "OpenStreetMap (© OpenStreetMap contributors)"}, "geometry": {"type": "Polygon", "coordinates": [[[35.87447, 34.9653753], [35.8745221, 34.9654469], [35.874592, 34.9655428], [35.8735092, 34.9658998], [35.8731175, 34.9660494], [35.8724899, 34.9662975], [35.8722822, 34.9664388], [35.8721418, 34.9666316], [35.8718429, 34.9683738], [35.8719181, 34.9684715], [35.8719205, 34.9685466], [35.8718888, 34.9686231], [35.8718301, 34.9686672], [35.871716, 34.9686652], [35.8716019, 34.9686319], [35.8715404, 34.9685927], [35.8717874, 34.9667097], [35.8718354, 34.9664562], [35.8719367, 34.9662982], [35.8720963, 34.9661819], [35.8722498, 34.9660951], [35.87447, 34.9653753]]]}}, {"type": "Feature", "properties": {"name": "breakwater_27", "role": "breakwater", "source": "OpenStreetMap (© OpenStreetMap contributors)"}, "geometry": {"type": "Polygon", "coordinates": [[[35.874151, 34.9649091], [35.8744359, 34.9646767], [35.8744147, 34.9646164], [35.8730811, 34.9652127], [35.8730831, 34.9652613], [35.8731967, 34.9652729], [35.874151, 34.9649091]]]}}, {"type": "Feature", "properties": {"name": "breakwater_28", "role": "breakwater", "source": "OpenStreetMap (© OpenStreetMap contributors)"}, "geometry": {"type": "Polygon", "coordinates": [[[35.8773005, 34.9558173], [35.8773238, 34.9556188], [35.8768949, 34.9555997], [35.8759803, 34.9555114], [35.8759425, 34.9555423], [35.8759359, 34.9556069], [35.8759678, 34.9556455], [35.8773005, 34.9558173]]]}}, {"type": "Feature", "properties": {"name": "coastline_seg_0", "role": "coastline", "source": "OpenStreetMap (© OpenStreetMap contributors)"}, "geometry": {"type": "Polygon", "coordinates": [[[35.8864304, 34.7846398], [35.8864881, 34.7847004], [35.8865122, 34.7847648], [35.8865176, 34.7848232], [35.8865015, 34.7848871], [35.8864532, 34.7849526], [35.8863822, 34.7850066], [35.8862883, 34.7850595], [35.8861676, 34.7850914], [35.8860549, 34.7850749], [35.886004, 34.7850374], [35.8859758, 34.7849736], [35.8859771, 34.7848777], [35.8860509, 34.7847577], [35.8861086, 34.7846883], [35.8861917, 34.7846343], [35.8863205, 34.784609], [35.8864304, 34.7846398]]]}}, {"type": "Feature", "properties": {"name": "coastline_seg_1", "role": "coastline", "source": "OpenStreetMap (© OpenStreetMap contributors)"}, "geometry": {"type": "LineString", "coordinates": [[35.8699081, 34.8980294], [35.8710226, 34.8976788], [35.871691, 34.8969903], [35.8715085, 34.896791], [35.8711887, 34.8963596], [35.8710972, 34.8957391], [35.8712313, 34.8956658], [35.8725985, 34.8957843], [35.8730936, 34.8956017], [35.8732003, 34.8953043], [35.8731368, 34.8950621], [35.8728875, 34.8948613], [35.8720985, 34.894768], [35.8717147, 34.8947971], [35.8715867, 34.8946922], [35.8715654, 34.8945406], [35.8716773, 34.8943394], [35.873338, 34.8929953], [35.8734849, 34.8929229], [35.8743033, 34.893126], [35.8745082, 34.8928456], [35.8746779, 34.8924489], [35.8748144, 34.8920806], [35.8749992, 34.8917285], [35.8750623, 34.891656], [35.8752413, 34.8915994], [35.8754228, 34.8915314], [35.875496, 34.8914094], [35.8756188, 34.8911244], [35.875679, 34.8907958], [35.875678, 34.8904565], [35.875585, 34.8903551], [35.8753894, 34.8902295], [35.8753712, 34.8901877], [35.8753725, 34.8901297], [35.8754055, 34.8900854], [35.8754483, 34.8900683], [35.8755146, 34.8900695], [35.8756315, 34.8902003], [35.8759374, 34.8904639], [35.8762223, 34.8906713], [35.8762685, 34.8906976], [35.8763158, 34.8906901], [35.8765202, 34.8904956], [35.8768434, 34.889847], [35.8768575, 34.889788], [35.8768524, 34.8897333], [35.8768293, 34.889706], [35.8768306, 34.8896491], [35.8767184, 34.8895243], [35.8762522, 34.8893696], [35.8761624, 34.8893851], [35.8759358, 34.8897931], [35.8758167, 34.8897491], [35.8758528, 34.889676], [35.8760309, 34.8893169], [35.8759347, 34.8892771], [35.875836, 34.8892817], [35.875701, 34.8893353], [35.8751067, 34.8899676], [35.8749563, 34.8901276], [35.8749717, 34.8901692], [35.8749806, 34.8902111], [35.874973, 34.8902531], [35.8749498, 34.8902911], [35.8749147, 34.8903203], [35.8748706, 34.8903395], [35.8748214, 34.8903468], [35.8747719, 34.8903416], [35.8747266, 34.8903243], [35.8746892, 34.8902961], [35.8746642, 34.8902597], [35.874654, 34.8902188], [35.8746596, 34.8901774], [35.8746805, 34.8901393], [35.8755095, 34.8892464], [35.8757423, 34.8891294], [35.875817, 34.8891163], [35.8759579, 34.8890915], [35.8758782, 34.8889238], [35.8762267, 34.8878338], [35.876358, 34.8874361], [35.8764228, 34.8872399], [35.8764276, 34.8870661], [35.8763327, 34.887064], [35.8761901, 34.8870368], [35.8761479, 34.8869567], [35.8761889, 34.8868661], [35.8762655, 34.886811], [35.8763558, 34.8868261], [35.876546, 34.8869216], [35.8766817, 34.8869146], [35.876935, 34.8867773], [35.8771432, 34.8866645], [35.877716, 34.8861124], [35.8779632, 34.8855995], [35.8779914, 34.8848231], [35.8780331, 34.8847214], [35.8781049, 34.8846207], [35.8781998, 34.8845154], [35.8785251, 34.8844104], [35.8786172, 34.88436], [35.8786936, 34.8842929], [35.8787996, 34.8840872], [35.8788183, 34.8839947], [35.8788268, 34.8838676], [35.878817, 34.8837989], [35.8787942, 34.883734], [35.8787305, 34.8836206], [35.8786333, 34.88347], [35.8786244, 34.8834374], [35.878652, 34.8833468], [35.8786973, 34.8832672], [35.8787526, 34.8832467], [35.8788627, 34.8832141], [35.8789927, 34.8831498], [35.879108, 34.8830838], [35.8792719, 34.8829394], [35.8793172, 34.8828605], [35.8793494, 34.8827648], [35.8793816, 34.882635], [35.8793823, 34.8825125], [35.8793695, 34.8824326], [35.8792931, 34.8823071], [35.8792589, 34.8821859], [35.8792676, 34.8820904], [35.8793003, 34.88197], [35.8793467, 34.8819199], [35.8795294, 34.8818183], [35.8796927, 34.8816911], [35.8797786, 34.8815194], [35.8798107, 34.881416], [35.8798017, 34.8813217], [35.8797705, 34.881207], [35.8797088, 34.8810552], [35.8796515, 34.8808731], [35.87969, 34.8807757], [35.8797397, 34.8806456], [35.8800585, 34.8804285], [35.8801487, 34.8803379], [35.8802077, 34.880164], [35.8802366, 34.8799965], [35.8801997, 34.8797966], [35.8801101, 34.8796606], [35.8800509, 34.8796099], [35.8797721, 34.8794897], [35.8797866, 34.8793895], [35.8798099, 34.8792823], [35.8800219, 34.8790938], [35.8802937, 34.8788283], [35.8805689, 34.8784701], [35.8807855, 34.8781253], [35.8808642, 34.8779668], [35.8808778, 34.8777972], [35.8808198, 34.8776543], [35.8807093, 34.8774812], [35.8805961, 34.8773794], [35.8804727, 34.8772685], [35.8802759, 34.8771813], [35.8792584, 34.8770059], [35.8791935, 34.876977], [35.8791592, 34.8769216], [35.8791775, 34.8767934], [35.8791991, 34.8767521], [35.8792491, 34.8767204], [35.8793817, 34.8767363], [35.8795448, 34.8767559], [35.8797041, 34.8767578], [35.879862, 34.8767407], [35.8800153, 34.876705], [35.8801606, 34.8766515], [35.880295, 34.8765812], [35.8804155, 34.8764957], [35.8805196, 34.8763967], [35.880605, 34.8762863], [35.8806701, 34.876167], [35.8807134, 34.8760411], [35.880734, 34.8759093], [35.8807308, 34.8757764], [35.880704, 34.8756463], [35.8806533, 34.8755191], [35.8806151, 34.8754565], [35.8805808, 34.8754003], [35.8804877, 34.8752915], [35.8803761, 34.8751952], [35.8802484, 34.8751135], [35.8801074, 34.8750481], [35.8799562, 34.8750005], [35.8797948, 34.8749713], [35.87963, 34.8749624], [35.8794654, 34.8749739], [35.8793048, 34.8750056], [35.8791518, 34.8750568], [35.87901, 34.8751262], [35.8789629, 34.8751581], [35.8788825, 34.8752124], [35.8787722, 34.8753133], [35.8786818, 34.8754266], [35.8786131, 34.8755498], [35.8783593, 34.8765692], [35.8783475, 34.8766164], [35.8782229, 34.877117], [35.8782564, 34.8771455], [35.8782987, 34.8772159], [35.8783304, 34.877295], [35.8783306, 34.8773783], [35.8782979, 34.8774597], [35.8782352, 34.8775282], [35.8781491, 34.8775767], [35.8780486, 34.8776], [35.8779442, 34.8775958], [35.8778543, 34.8775679], [35.8777784, 34.8775195], [35.8777232, 34.8774549], [35.8776938, 34.8773798], [35.8776926, 34.877301], [35.8780129, 34.8758521], [35.8781198, 34.8755488], [35.8783192, 34.8751795], [35.8786425, 34.8748062], [35.8789803, 34.8745392], [35.8792919, 34.8743401], [35.8796833, 34.8741681], [35.8800724, 34.8740507], [35.8801235, 34.8740353], [35.8807306, 34.8739608], [35.8815365, 34.8740008], [35.8819262, 34.8740324], [35.8820248, 34.8740404], [35.8820532, 34.8739427], [35.8820735, 34.8738727], [35.8820861, 34.8737899], [35.8821036, 34.8736746], [35.8819899, 34.8736589], [35.8820165, 34.8735454], [35.8822184, 34.8735205], [35.8824074, 34.8734406], [35.8826771, 34.8731268], [35.8829208, 34.8724345], [35.8828461, 34.8721021], [35.8828314, 34.8720367], [35.8828173, 34.8719738], [35.8828079, 34.8719323], [35.8830931, 34.871435], [35.8829145, 34.8708552], [35.8822611, 34.8702551], [35.8819061, 34.8700924], [35.8816645, 34.8700181], [35.881404, 34.8699869], [35.8811846, 34.8699837], [35.8809528, 34.8700494], [35.880898, 34.8701782], [35.8808946, 34.8702276], [35.8808814, 34.8704199], [35.8809168, 34.8704796], [35.8809306, 34.8705665], [35.8809102, 34.8706526], [35.8808585, 34.8707278], [35.8807808, 34.8707861], [35.8806848, 34.8708215], [35.8805801, 34.8708305], [35.8804772, 34.8708122], [35.8803927, 34.8707726], [35.8803257, 34.8707147], [35.8802821, 34.8706433], [35.8802655, 34.8705646], [35.8802774, 34.8704854], [35.8804371, 34.8700343], [35.8806234, 34.8696664], [35.8806685, 34.8695773], [35.8811781, 34.8691037], [35.8818333, 34.8690361], [35.8825636, 34.8690501], [35.8830421, 34.8680267], [35.8824279, 34.8677122], [35.8825348, 34.8675457], [35.8833831, 34.8679346], [35.8836692, 34.8680658], [35.8839946, 34.8679025], [35.8846883, 34.8667535], [35.8858675, 34.864288], [35.8876501, 34.8611787], [35.8894281, 34.8584247], [35.8896866, 34.8579716], [35.8903257, 34.8568513], [35.8904124, 34.8566942], [35.891185, 34.8552937], [35.8920548, 34.8538071], [35.8933496, 34.8512354], [35.8948205, 34.8483471], [35.8960854, 34.8453551], [35.896844, 34.8435187], [35.8974765, 34.8421248], [35.8980008, 34.8411339], [35.8985337, 34.8397188], [35.8988692, 34.838935], [35.8995485, 34.8373481], [35.9004388, 34.8352386], [35.9010019, 34.8337846], [35.9018502, 34.8321105], [35.9022474, 34.8309038], [35.9031103, 34.8291165], [35.903928, 34.8275923], [35.9044717, 34.8267602], [35.9049494, 34.826029], [35.9057256, 34.8245549], [35.9065942, 34.8231872], [35.9073019, 34.822699], [35.9080678, 34.8214421]]}}, {"type": "Feature", "properties": {"name": "coastline_seg_2", "role": "coastline", "source": "OpenStreetMap (© OpenStreetMap contributors)"}, "geometry": {"type": "LineString", "coordinates": [[35.8906734, 34.9984653], [35.8899484, 34.9977848], [35.8892956, 34.9972715], [35.888581, 34.9968037], [35.8876705, 34.9959926], [35.8867235, 34.9951489], [35.8833896, 34.9935588], [35.8822156, 34.992076], [35.8807949, 34.9917155], [35.8802954, 34.991875], [35.8798722, 34.9917293], [35.8801684, 34.9915559], [35.8801669, 34.9913605], [35.8795207, 34.9900544], [35.8788245, 34.9894384], [35.8780825, 34.9891679], [35.8780271, 34.9866415], [35.8782696, 34.9849629], [35.8782348, 34.983995], [35.8785647, 34.9822826], [35.8781002, 34.9806398], [35.8778149, 34.9806799], [35.877709, 34.9804395], [35.8778091, 34.9800107], [35.8778988, 34.9796262], [35.8779859, 34.978185], [35.8778964, 34.9772808], [35.877303, 34.976141], [35.8767984, 34.9747059], [35.8763122, 34.9696208], [35.8759821, 34.9686725], [35.8734717, 34.9684699], [35.873449, 34.9684574], [35.8730636, 34.9682446], [35.8730502, 34.9682241], [35.8728283, 34.9678847], [35.8728623, 34.967831], [35.8729382, 34.9677883], [35.8730523, 34.9677995], [35.8731187, 34.9678654], [35.8730824, 34.9680287], [35.8732442, 34.9681934], [35.8735155, 34.9683084], [35.8762243, 34.9685444], [35.8762416, 34.9678976], [35.8761122, 34.9677161], [35.8758101, 34.9676854], [35.8757394, 34.9679297], [35.8756843, 34.9679192], [35.8756767, 34.9676597], [35.8754049, 34.9675918], [35.8753495, 34.9677555], [35.8752653, 34.9677288], [35.8753673, 34.9675266], [35.8757708, 34.9676147], [35.876124, 34.9676208], [35.8761373, 34.9669734], [35.87576, 34.9659549], [35.8750514, 34.9653914], [35.874592, 34.9655428], [35.8735092, 34.9658998], [35.8734585, 34.9669244], [35.8731446, 34.9669103], [35.8731175, 34.9660494], [35.8724899, 34.9662975], [35.8722822, 34.9664388], [35.8721418, 34.9666316], [35.8718429, 34.9683738], [35.8719181, 34.9684715], [35.8719205, 34.9685466], [35.8718888, 34.9686231], [35.8718301, 34.9686672], [35.871716, 34.9686652], [35.8716019, 34.9686319], [35.8715404, 34.9685927], [35.8717874, 34.9667097], [35.8718354, 34.9664562], [35.8719367, 34.9662982], [35.8720963, 34.9661819], [35.8722498, 34.9660951], [35.87447, 34.9653753], [35.874151, 34.9649091], [35.8731967, 34.9652729], [35.8730831, 34.9652613], [35.8730811, 34.9652127], [35.8744147, 34.9646164], [35.8745969, 34.964533], [35.874861, 34.963055], [35.8753852, 34.9611164], [35.8753075, 34.9608664], [35.8756451, 34.960795], [35.8760588, 34.9604649], [35.8764723, 34.959973], [35.8770632, 34.9581557], [35.8773005, 34.9558173], [35.8759678, 34.9556455], [35.8759359, 34.9556069], [35.8759425, 34.9555423], [35.8759803, 34.9555114], [35.8768949, 34.9555997], [35.8771668, 34.9555681], [35.8784099, 34.9532962], [35.8783265, 34.952465], [35.8772688, 34.9522811], [35.8772748, 34.9521128], [35.8786803, 34.9523575], [35.879085, 34.9515017], [35.8789034, 34.9513704], [35.8796157, 34.9488973], [35.8795482, 34.9485574], [35.8790631, 34.9461159], [35.8787899, 34.941501], [35.8785471, 34.9411013], [35.8788464, 34.9402601], [35.8788648, 34.9401797], [35.8788675, 34.940068], [35.8788972, 34.9388747], [35.87889, 34.9386225]]}}, {"type": "Feature", "properties": {"name": "coastline_seg_3", "role": "coastline", "source": "OpenStreetMap (© OpenStreetMap contributors)"}, "geometry": {"type": "Polygon", "coordinates": [[[35.8698758, 34.9827056], [35.8699013, 34.9827363], [35.8699214, 34.982788], [35.8699469, 34.9828451], [35.8699898, 34.9828935], [35.8700247, 34.9829242], [35.8700448, 34.982941], [35.8700546, 34.9829561], [35.8700569, 34.9829759], [35.8700495, 34.9829998], [35.8700358, 34.9830316], [35.8700059, 34.9830665], [35.869955, 34.9831105], [35.8698953, 34.98315], [35.8698423, 34.983183], [35.8697934, 34.9832231], [35.8697431, 34.9832753], [35.8697082, 34.9833214], [35.8696794, 34.9833506], [35.8696412, 34.9833824], [35.8695694, 34.9834165], [35.8694695, 34.9834429], [35.8693287, 34.9834604], [35.8692247, 34.9834615], [35.8691356, 34.9834539], [35.8690685, 34.983439], [35.8690424, 34.9834192], [35.8690363, 34.9833896], [35.8690437, 34.9833648], [35.8690598, 34.9833484], [35.8690906, 34.983344], [35.8691221, 34.9833423], [35.8691563, 34.9833357], [35.8691785, 34.9833231], [35.8691979, 34.9832863], [35.8692086, 34.9832445], [35.869218, 34.9831885], [35.8692288, 34.9831187], [35.8692408, 34.983072], [35.8692482, 34.9830407], [35.8692516, 34.9830198], [35.8692603, 34.9830022], [35.869277, 34.9829946], [35.8692978, 34.9829946], [35.8693367, 34.9830017], [35.8693676, 34.9830028], [35.8693977, 34.9829968], [35.8694138, 34.9829874], [35.8694179, 34.9829731], [35.8694179, 34.982949], [35.8694091, 34.9829242], [35.869387, 34.9829006], [35.8693642, 34.982877], [35.869334, 34.9828476], [35.8693143, 34.9828308], [35.8693082, 34.9828165], [35.8693112, 34.9828042], [35.8693213, 34.9827918], [35.8693377, 34.9827828], [35.8693619, 34.9827671], [35.8693733, 34.9827561], [35.869378, 34.9827435], [35.8693796, 34.9827278], [35.8693749, 34.9827089], [35.8693592, 34.9826858], [35.8693267, 34.9826369], [35.8693213, 34.9826078], [35.8693253, 34.9825836], [35.8693381, 34.9825699], [35.8693622, 34.9825649], [35.8693924, 34.9825682], [35.8694306, 34.9825858], [35.8694715, 34.9826127], [35.8695084, 34.982632], [35.8695446, 34.9826435], [35.8695976, 34.9826523], [35.8696975, 34.9826638], [35.8697692, 34.9826726], [35.8698343, 34.9826863], [35.8698758, 34.9827056]]]}}, {"type": "Feature", "properties": {"name": "coastline_seg_4", "role": "coastline", "source": "OpenStreetMap (© OpenStreetMap contributors)"}, "geometry": {"type": "Polygon", "coordinates": [[[35.8824795, 34.7939868], [35.8825468, 34.7939781], [35.8826036, 34.7939735], [35.8826593, 34.7939873], [35.8826921, 34.7940154], [35.8827142, 34.7940595], [35.8827163, 34.7940864], [35.8827223, 34.7941162], [35.8827464, 34.7941459], [35.8828001, 34.7942015], [35.8828174, 34.7942396], [35.8828212, 34.7942673], [35.8828186, 34.7942867], [35.8828101, 34.7943017], [35.8828048, 34.7943199], [35.8828118, 34.7943366], [35.8828162, 34.7943582], [35.8828014, 34.7943761], [35.8827773, 34.7943921], [35.882725, 34.7944014], [35.8826318, 34.7943882], [35.8825426, 34.7943959], [35.8824346, 34.7944124], [35.8823588, 34.7944179], [35.8823153, 34.7944201], [35.8822516, 34.7944185], [35.8821892, 34.7944025], [35.8821537, 34.7943739], [35.8821282, 34.7943139], [35.8821201, 34.7942417], [35.8821335, 34.79418], [35.8821657, 34.7941211], [35.8822609, 34.794049], [35.8823729, 34.7940067], [35.8824795, 34.7939868]]]}}, {"type": "Feature", "properties": {"name": "coastline_seg_5", "role": "coastline", "source": "OpenStreetMap (© OpenStreetMap contributors)"}, "geometry": {"type": "Polygon", "coordinates": [[[35.8864801, 34.7828499], [35.8865196, 34.7829777], [35.8865015, 34.7830994], [35.886462, 34.783171], [35.8863956, 34.783241], [35.8863158, 34.7833065], [35.8862514, 34.7833478], [35.8861548, 34.7833753], [35.8860831, 34.7833638], [35.8860328, 34.7833384], [35.8859644, 34.7832514], [35.8859275, 34.7831958], [35.8859121, 34.7831347], [35.8859148, 34.7830273], [35.8859215, 34.7829226], [35.8859436, 34.7828466], [35.8859818, 34.782802], [35.8861059, 34.7827481], [35.8862454, 34.7827343], [35.8863681, 34.7827403], [35.8864358, 34.7827888], [35.8864801, 34.7828499]]]}}, {"type": "Feature", "properties": {"name": "coastline_seg_6", "role": "coastline", "source": "OpenStreetMap (© OpenStreetMap contributors)"}, "geometry": {"type": "Polygon", "coordinates": [[[35.8579663, 34.858777], [35.8584788, 34.8589911], [35.8589125, 34.8589701], [35.8603602, 34.8585102], [35.8606927, 34.8583565], [35.8608733, 34.858242], [35.8610709, 34.8580518], [35.8615702, 34.8572377], [35.8615997, 34.857213], [35.861638, 34.8571912], [35.8616683, 34.8571668], [35.861698, 34.8571628], [35.8617221, 34.8571785], [35.8617271, 34.8572054], [35.8617147, 34.8572338], [35.8617161, 34.8572527], [35.861107, 34.8582124], [35.8609759, 34.8583433], [35.8604585, 34.8586043], [35.8589087, 34.8590823], [35.8584827, 34.8591184], [35.8576281, 34.8589436], [35.8573203, 34.859034], [35.8564139, 34.8588209], [35.856245, 34.8584568], [35.856245, 34.8578566], [35.856245, 34.857813], [35.8562321, 34.8577813], [35.8560717, 34.8573875], [35.8558953, 34.8570929], [35.8558926, 34.8570885], [35.8558299, 34.8567982], [35.8559174, 34.8565299], [35.8559465, 34.8561606], [35.8562883, 34.8559187], [35.8563619, 34.8557957], [35.8563938, 34.8551735], [35.8565223, 34.8547009], [35.85712, 34.8542232], [35.8574601, 34.8541636], [35.8580512, 34.853802], [35.858272, 34.853576], [35.8592182, 34.8537787], [35.8608689, 34.8540798], [35.8619753, 34.8543405], [35.8621376, 34.8544045], [35.8621415, 34.8545222], [35.8620917, 34.8546047], [35.862018, 34.8549139], [35.8621022, 34.8552913], [35.8618092, 34.8558259], [35.8618108, 34.8558277], [35.8622774, 34.8563679], [35.8620893, 34.8567156], [35.8620372, 34.8567376], [35.8620119, 34.856762], [35.8619865, 34.8567773], [35.8619559, 34.856777], [35.8619367, 34.8567716], [35.8619209, 34.856757], [35.8619148, 34.8567383], [35.8619192, 34.8567232], [35.8619376, 34.8566981], [35.8619412, 34.8566604], [35.8621213, 34.8563651], [35.8616898, 34.8559509], [35.8616979, 34.8559342], [35.8616194, 34.8558875], [35.8616354, 34.8558543], [35.8615774, 34.8558053], [35.8613657, 34.8556697], [35.8613783, 34.8556486], [35.8612185, 34.8555797], [35.8612347, 34.8555397], [35.8610875, 34.8554651], [35.8609396, 34.8554315], [35.8608759, 34.8554473], [35.8607255, 34.855553], [35.8607106, 34.8555408], [35.8605494, 34.8556797], [35.860567, 34.8556953], [35.8603449, 34.8559211], [35.86017, 34.8561552], [35.8600215, 34.8564168], [35.8599379, 34.8566545], [35.8599377, 34.8568025], [35.8599597, 34.8568821], [35.8600216, 34.8569554], [35.8600823, 34.8570036], [35.8606579, 34.8572592], [35.8607532, 34.8573394], [35.8606603, 34.8574558], [35.8606316, 34.8574448], [35.8606105, 34.8574712], [35.8598101, 34.8571186], [35.859769, 34.8571471], [35.8597345, 34.8571489], [35.8596493, 34.8571534], [35.8596081, 34.857184], [35.8595657, 34.8572049], [35.8594164, 34.8572294], [35.8593629, 34.8572438], [35.8592672, 34.857276], [35.8591712, 34.8573212], [35.8591101, 34.8573577], [35.8590065, 34.8574361], [35.8590305, 34.8574563], [35.8588935, 34.8575834], [35.8590659, 34.8577036], [35.8590231, 34.8577412], [35.8588152, 34.8575957], [35.858583, 34.8578073], [35.8585249, 34.8578602], [35.8583854, 34.8579619], [35.8582657, 34.8579143], [35.8581386, 34.8580777], [35.8579413, 34.8585236], [35.8579663, 34.858777]]]}}, {"type": "Feature", "properties": {"name": "coastline_seg_7", "role": "coastline", "source": "OpenStreetMap (© OpenStreetMap contributors)"}, "geometry": {"type": "LineString", "coordinates": [[35.9242845, 34.7890026], [35.9243998, 34.7888197], [35.9244762, 34.78866], [35.9245674, 34.7884353], [35.9246103, 34.7883748], [35.9246841, 34.7882657], [35.9248075, 34.7880377], [35.9250368, 34.787574], [35.9253144, 34.7869617], [35.9257624, 34.7860453], [35.9257624, 34.7860221], [35.9257556, 34.7859968], [35.9257235, 34.785945], [35.9256966, 34.7858889], [35.9257047, 34.7858239], [35.9258857, 34.7853337], [35.9261727, 34.7846552], [35.9263149, 34.7843314], [35.9266072, 34.7838104], [35.9266461, 34.7837884], [35.9267078, 34.7837972], [35.9267427, 34.7838247], [35.9267963, 34.7838534], [35.9268674, 34.7838622], [35.9269515, 34.7838379], [35.9270699, 34.7837576], [35.9271263, 34.7836893], [35.9271879, 34.7835461], [35.927664, 34.781765], [35.9280878, 34.7802493], [35.9281817, 34.7798924], [35.9282541, 34.7796897], [35.9283963, 34.779465], [35.9285948, 34.7791764], [35.9287128, 34.7789495], [35.9287718, 34.7787424], [35.9291366, 34.7769293], [35.929268, 34.776167], [35.9293404, 34.7757771], [35.9293947, 34.7755948], [35.9294021, 34.7755634], [35.9294397, 34.7754113], [35.9295014, 34.7751029], [35.9296864, 34.7742172], [35.9297749, 34.7737435], [35.9297696, 34.773228], [35.9297548, 34.7730572], [35.9297596, 34.7729024], [35.9297615, 34.7728601], [35.9299251, 34.7720449], [35.9300244, 34.771342], [35.9301263, 34.7704255], [35.9301317, 34.7702338], [35.9301601, 34.7700234], [35.930188, 34.7698174], [35.9302014, 34.7696235], [35.9301826, 34.7692004], [35.93018, 34.7688148], [35.9301719, 34.7687157], [35.9301907, 34.7686143], [35.9302363, 34.7684204], [35.9303141, 34.7681781], [35.930475, 34.7675545], [35.9305823, 34.7669376], [35.9306493, 34.7662656]]}}, {"type": "Feature", "properties": {"name": "coastline_seg_8", "role": "coastline", "source": "OpenStreetMap (© OpenStreetMap contributors)"}, "geometry": {"type": "LineString", "coordinates": [[35.9080678, 34.8214421], [35.9084782, 34.8207375], [35.9088644, 34.8199778], [35.9094572, 34.81878], [35.9101868, 34.8171351], [35.9109136, 34.815794], [35.9113991, 34.8147921], [35.91167, 34.8142614], [35.9118256, 34.8139376], [35.9119919, 34.8135787], [35.9121448, 34.8132109], [35.9124693, 34.8124864], [35.912928, 34.8115285], [35.9133518, 34.8105595], [35.9140196, 34.8091985], [35.9143656, 34.8084013], [35.9148082, 34.8074632], [35.9151891, 34.8067562], [35.9153527, 34.8063664], [35.9155646, 34.8059237], [35.9161144, 34.8050946], [35.9164712, 34.8043469], [35.9165972, 34.804076], [35.916633, 34.8039939], [35.9168116, 34.8035722], [35.9168681, 34.8034263], [35.9169339, 34.8032974], [35.9171032, 34.8030461], [35.9171364, 34.8029968], [35.9173483, 34.802618], [35.9178445, 34.8016709], [35.9180362, 34.8012391], [35.9180537, 34.8011996], [35.9182441, 34.8007635], [35.9183568, 34.8005124], [35.9184587, 34.8002679], [35.9185418, 34.7999045], [35.9185982, 34.7997305], [35.9187001, 34.7995301], [35.919376, 34.7984443], [35.9194846, 34.7983077], [35.9196389, 34.7980842], [35.9205709, 34.7963386], [35.9211098, 34.7954256], [35.9212697, 34.7951547], [35.921731, 34.794332], [35.9221306, 34.793484], [35.9227797, 34.7920457], [35.9230936, 34.7914025], [35.9238875, 34.7898231], [35.9242845, 34.7890026]]}}, {"type": "Feature", "properties": {"name": "coastline_seg_9", "role": "coastline", "source": "OpenStreetMap (© OpenStreetMap contributors)"}, "geometry": {"type": "Polygon", "coordinates": [[[35.8559397, 34.8586253], [35.8558552, 34.8585404], [35.8558052, 34.8585016], [35.8556876, 34.8584105], [35.8557014, 34.8583762], [35.8558087, 34.8583132], [35.8558982, 34.8582942], [35.8559682, 34.8582905], [35.8560306, 34.8583304], [35.856036, 34.8583632], [35.856119, 34.8584513], [35.8561057, 34.8584667], [35.8561366, 34.8585167], [35.8561522, 34.8585924], [35.8561427, 34.8586478], [35.856037, 34.858649], [35.8559397, 34.8586253]]]}}, {"type": "Feature", "properties": {"name": "coastline_seg_10", "role": "coastline", "source": "OpenStreetMap (© OpenStreetMap contributors)"}, "geometry": {"type": "LineString", "coordinates": [[35.8719489, 34.9149839], [35.8683519, 34.9140833], [35.8657751, 34.9134079], [35.8649723, 34.913166], [35.8638823, 34.9127273], [35.8630644, 34.9123209], [35.8624614, 34.9119585], [35.8613148, 34.9111708], [35.8592889, 34.9097572], [35.8592777, 34.9097264], [35.8593294, 34.9096792], [35.859175, 34.9095852], [35.8591703, 34.9095573], [35.8592395, 34.9094877], [35.8592684, 34.9094861], [35.8593561, 34.9095457], [35.8593604, 34.9095711], [35.859329, 34.9096006], [35.8593935, 34.9096436], [35.8594237, 34.9096305], [35.8594607, 34.9096257], [35.8595022, 34.9096427], [35.8614957, 34.9110379], [35.8626191, 34.9118067], [35.863209, 34.9121632], [35.8638014, 34.9124644], [35.8638637, 34.9124478], [35.8639421, 34.9124484], [35.863986, 34.9124499], [35.8640561, 34.9124524], [35.8641125, 34.9124544], [35.8641727, 34.9124724], [35.8642201, 34.9124974], [35.8643015, 34.9126854], [35.8643227, 34.9127028], [35.8647495, 34.912881], [35.8652437, 34.9130507], [35.8652533, 34.9130401], [35.865276, 34.9130232], [35.8653199, 34.9129981], [35.8653705, 34.9129784], [35.8654184, 34.9129674], [35.8654258, 34.9129657], [35.8654833, 34.9129609], [35.8655402, 34.9129642], [35.8655529, 34.9129971], [35.8655956, 34.9129755], [35.8656479, 34.9129943], [35.8656954, 34.9130202], [35.865737, 34.9130523], [35.8657712, 34.9130898], [35.8657971, 34.9131316], [35.865814, 34.9131763], [35.8658213, 34.9132228], [35.872007, 34.9148049]]}}, {"type": "Feature", "properties": {"name": "coastline_seg_11", "role": "coastline", "source": "OpenStreetMap (© OpenStreetMap contributors)"}, "geometry": {"type": "LineString", "coordinates": [[35.8623804, 34.9088337], [35.862365, 34.9087628], [35.8624506, 34.9087238], [35.8690467, 34.9104072], [35.8691505, 34.9101479], [35.8692083, 34.9101601], [35.8693986, 34.9101143], [35.8696048, 34.9095277], [35.8695919, 34.9094115], [35.8695269, 34.9093346], [35.8694569, 34.9093121], [35.8694946, 34.9092125], [35.8695562, 34.9090499], [35.8649664, 34.9078584], [35.8639302, 34.9075887], [35.8636275, 34.9071978], [35.8635398, 34.9072134], [35.8634273, 34.9071624], [35.8632748, 34.9069705], [35.8630713, 34.9060414], [35.8631243, 34.9059979], [35.8630221, 34.9055042], [35.8630747, 34.9054804], [35.8698888, 34.9072344], [35.8699887, 34.9070198], [35.8723575, 34.9076334], [35.8727984, 34.9064779], [35.8663412, 34.9048189], [35.8648072, 34.9044191], [35.8649718, 34.9028134], [35.8734112, 34.90497], [35.8736492, 34.9042847], [35.8705142, 34.9034779], [35.8707797, 34.9028006], [35.868012, 34.9020677], [35.8680416, 34.9019061], [35.870859, 34.9026133], [35.8710097, 34.9021924], [35.8703588, 34.9017801], [35.8727449, 34.9009305], [35.8725958, 34.9003858], [35.8726859, 34.9003713], [35.8725756, 34.9001466], [35.8726403, 34.8999811], [35.8725641, 34.8998656], [35.8725563, 34.8997189], [35.8725794, 34.8995722], [35.8725565, 34.8993443], [35.8724984, 34.8992914], [35.8719666, 34.8992538], [35.8719019, 34.8992787], [35.8716545, 34.8992663], [35.8716354, 34.8992257], [35.8707132, 34.8991904], [35.8695984, 34.8992961], [35.8693509, 34.8992044], [35.869059, 34.8989669], [35.8688525, 34.8987084], [35.8610762, 34.9003822], [35.8604418, 34.9005402], [35.8599357, 34.9007126], [35.8593476, 34.9009886], [35.8587915, 34.9012935], [35.8583809, 34.9015696], [35.857884, 34.9020117], [35.8571901, 34.9027942], [35.8568985, 34.9032399], [35.8566483, 34.9037309], [35.8546525, 34.9098489], [35.8546459, 34.909972], [35.8546982, 34.9100723], [35.8547012, 34.9101229], [35.8546767, 34.9101888], [35.8546267, 34.9102442], [35.854557, 34.9102826], [35.8544755, 34.9102996], [35.8543919, 34.9102932], [35.8543359, 34.9102746], [35.8542871, 34.9102453], [35.8542484, 34.9102073], [35.8542438, 34.910155], [35.8542559, 34.9100959], [35.8542926, 34.9100668], [35.8563887, 34.9036738], [35.8566387, 34.903165], [35.8569093, 34.9027014], [35.857635, 34.9018665], [35.8581835, 34.9014181], [35.8588054, 34.9010068], [35.8593532, 34.9007058], [35.8597843, 34.9004909], [35.8603573, 34.9003116], [35.8609768, 34.9001562], [35.8617632, 34.8999888], [35.8696487, 34.8983097], [35.8699081, 34.8980294]]}}, {"type": "Feature", "properties": {"name": "coastline_seg_12", "role": "coastline", "source": "OpenStreetMap (© OpenStreetMap contributors)"}, "geometry": {"type": "LineString", "coordinates": [[35.8787757, 34.9184498], [35.8776572, 34.9175245], [35.8766346, 34.9172522], [35.8764694, 34.9172765], [35.8761034, 34.9170788], [35.8759401, 34.9168421], [35.875755, 34.9167199], [35.8755129, 34.9166094], [35.8752128, 34.9165963], [35.8749186, 34.916437], [35.8748872, 34.9161908], [35.8745668, 34.9157808], [35.8744856, 34.9157632], [35.874471, 34.915639], [35.874277, 34.9155813], [35.8719489, 34.9149839]]}}, {"type": "Feature", "properties": {"name": "coastline_seg_13", "role": "coastline", "source": "OpenStreetMap (© OpenStreetMap contributors)"}, "geometry": {"type": "LineString", "coordinates": [[35.872007, 34.9148049], [35.8721993, 34.9142611], [35.8722159, 34.914223], [35.8716082, 34.9140668], [35.8716233, 34.9140265], [35.8721441, 34.912677], [35.8682895, 34.9116931]]}}, {"type": "Feature", "properties": {"name": "coastline_seg_14", "role": "coastline", "source": "OpenStreetMap (© OpenStreetMap contributors)"}, "geometry": {"type": "LineString", "coordinates": [[35.8682895, 34.9116931], [35.8679086, 34.9126856], [35.8678651, 34.9127028], [35.8677685, 34.912675], [35.8677524, 34.9126486], [35.8681288, 34.9116513]]}}, {"type": "Feature", "properties": {"name": "coastline_seg_15", "role": "coastline", "source": "OpenStreetMap (© OpenStreetMap contributors)"}, "geometry": {"type": "LineString", "coordinates": [[35.8681288, 34.9116513], [35.8635242, 34.9104593], [35.8623804, 34.9088337]]}}, {"type": "Feature", "properties": {"name": "coastline_seg_16", "role": "coastline", "source": "OpenStreetMap (© OpenStreetMap contributors)"}, "geometry": {"type": "Polygon", "coordinates": [[[35.8821275, 34.7947059], [35.8821004, 34.7947263], [35.8820732, 34.7947467], [35.8820041, 34.7947654], [35.8819605, 34.7947648], [35.8819317, 34.7947472], [35.8819136, 34.7947142], [35.8819143, 34.79469], [35.8819298, 34.7946686], [35.8819444, 34.7946533], [35.8819706, 34.7946239], [35.881995, 34.7946019], [35.8820236, 34.7945908], [35.8820544, 34.7945831], [35.8820839, 34.7945837], [35.8821041, 34.7946041], [35.8821356, 34.7946283], [35.8821467, 34.7946511], [35.8821416, 34.794685], [35.8821275, 34.7947059]]]}}, {"type": "Feature", "properties": {"name": "coastline_seg_17", "role": "coastline", "source": "OpenStreetMap (© OpenStreetMap contributors)"}, "geometry": {"type": "LineString", "coordinates": [[35.8879341, 35.1063425], [35.8877186, 35.1058554], [35.8877304, 35.1051215], [35.8873347, 35.1039132], [35.8870252, 35.1032242], [35.887178, 35.1025351], [35.8870957, 35.101157], [35.8868489, 35.0997372], [35.8869547, 35.0990256], [35.8871506, 35.098516], [35.8876794, 35.0977051], [35.8876755, 35.0965961], [35.8878322, 35.0959231], [35.8881417, 35.095375], [35.8884277, 35.095298], [35.8887311, 35.0952907], [35.8889095, 35.0952179], [35.889027, 35.0948846], [35.8887959, 35.0946826], [35.8888547, 35.0941025], [35.8887802, 35.0937018], [35.8893326, 35.0926408], [35.88974, 35.0913651], [35.8901083, 35.0907721], [35.8905901, 35.090599], [35.8910876, 35.0894547], [35.8914363, 35.0878295], [35.8911033, 35.0874577], [35.8912138, 35.087135], [35.8913031, 35.0870217], [35.8913657, 35.0863646], [35.891166, 35.0861177], [35.8913227, 35.0851208], [35.8915655, 35.0850631], [35.8916321, 35.0849092], [35.8916831, 35.0840982], [35.8919612, 35.0834346], [35.8918593, 35.0826973], [35.8919024, 35.0818093], [35.8921453, 35.0813541], [35.8925018, 35.0809982], [35.8922589, 35.0797159], [35.8918084, 35.0784528], [35.8914794, 35.0766094], [35.890927, 35.0742273], [35.8899171, 35.0721352], [35.8894462, 35.07122], [35.8884198, 35.0698958], [35.8880633, 35.069899], [35.8878988, 35.0697002], [35.8871898, 35.0679111], [35.8865861, 35.0666946], [35.8865238, 35.0659136], [35.8862028, 35.0651904], [35.8855772, 35.0646636], [35.8854191, 35.0643392], [35.8853877, 35.0640442], [35.8855719, 35.0637428], [35.885313, 35.0629832], [35.8854059, 35.0628184], [35.8854576, 35.0626277], [35.8854707, 35.0624406], [35.8854438, 35.0620337], [35.8853708, 35.061933], [35.8854385, 35.0617447], [35.8854299, 35.0615443], [35.8853991, 35.061341], [35.8851766, 35.0608876], [35.8843753, 35.0608862], [35.8843211, 35.0609231], [35.8842976, 35.0609681], [35.8843158, 35.0611079], [35.8843146, 35.061149], [35.8843079, 35.0611957], [35.8842799, 35.0612418], [35.8842266, 35.06128], [35.8841413, 35.0613084], [35.8840641, 35.0613201], [35.8839851, 35.0613117], [35.8839131, 35.0612837], [35.8838552, 35.0612388], [35.8838172, 35.0611816], [35.8838026, 35.0611174], [35.8838131, 35.0610524], [35.8838478, 35.0609933], [35.8838921, 35.060929], [35.883941, 35.0608761], [35.8840081, 35.0608424], [35.8841764, 35.0607722], [35.8842909, 35.0607449], [35.8843185, 35.0607503], [35.8843517, 35.0607772], [35.8843983, 35.0607723], [35.8844234, 35.0607134], [35.884507, 35.0606807], [35.8854409, 35.0606871], [35.8855327, 35.0605619], [35.8858553, 35.0600329], [35.885907, 35.0596706], [35.8857129, 35.0590837], [35.8857442, 35.0574835], [35.8859754, 35.0567364], [35.8862261, 35.0561399], [35.8865395, 35.0556172], [35.886418, 35.054389], [35.8869195, 35.0533339], [35.8878087, 35.0518074], [35.8887848, 35.0508324], [35.8890153, 35.0504284], [35.8890077, 35.0492077], [35.8891798, 35.0484465], [35.8893593, 35.0478761], [35.8913501, 35.0434818], [35.8919299, 35.0424651], [35.8926315, 35.0419355], [35.8929631, 35.0403912], [35.893107, 35.0397692], [35.893015, 35.0394314], [35.8931136, 35.0392851], [35.8932654, 35.039049], [35.8943712, 35.0343499], [35.8950275, 35.0313078], [35.8949943, 35.0303732], [35.8955206, 35.0294977], [35.8955551, 35.028719], [35.8954387, 35.0285072], [35.895765, 35.0283386], [35.8963079, 35.0283627], [35.8963217, 35.0282269]]}}, {"type": "Feature", "properties": {"name": "coastline_seg_18", "role": "coastline", "source": "OpenStreetMap (© OpenStreetMap contributors)"}, "geometry": {"type": "LineString", "coordinates": [[35.8963217, 35.0282269], [35.8963481, 35.0279662], [35.8957035, 35.0280429], [35.8950441, 35.0280868], [35.8947394, 35.0278464], [35.8948388, 35.0274985], [35.8952057, 35.02726], [35.8952776, 35.0269626], [35.8954062, 35.0263276], [35.8957807, 35.0259156], [35.8961623, 35.024972], [35.8961778, 35.0249337], [35.8963235, 35.0242442], [35.8968645, 35.022397], [35.8969515, 35.0214756], [35.8969175, 35.0210907], [35.8968714, 35.0208523], [35.8967835, 35.0206382], [35.8966101, 35.0203781], [35.8964961, 35.0202616], [35.8963512, 35.020158], [35.8961124, 35.020045], [35.8958903, 35.0199884], [35.895718, 35.0199746], [35.8956449, 35.0200066], [35.8955848, 35.0200539], [35.8955538, 35.0201074], [35.8955873, 35.0201221], [35.8956398, 35.0201671], [35.895673, 35.020223], [35.8956835, 35.0202846], [35.8956704, 35.0203459], [35.8956359, 35.0203999], [35.8955831, 35.0204428], [35.8955171, 35.0204708], [35.8954438, 35.0204811], [35.8953701, 35.0204729], [35.8953024, 35.0204467], [35.8952477, 35.020405], [35.8952109, 35.0203516], [35.8951956, 35.0202917], [35.8952032, 35.0202307], [35.8958411, 35.0186177], [35.8959254, 35.0185183], [35.8960626, 35.0184504], [35.8968326, 35.0183724], [35.8971414, 35.016637], [35.8974829, 35.0147174], [35.897532, 35.0145589], [35.8976844, 35.0140672], [35.8983075, 35.009387], [35.8977299, 35.006532], [35.8967593, 35.0041772], [35.8961204, 35.0036418], [35.8957152, 35.0035838], [35.8946587, 35.0030335], [35.8947226, 35.0023156], [35.8938358, 35.0004474], [35.8930955, 34.9998412], [35.8927378, 34.9995484], [35.8918055, 34.9988175], [35.8912168, 34.9986382], [35.8909134, 34.9986862], [35.8906174, 34.998868], [35.8904946, 34.9987882], [35.8904322, 34.9987477], [35.8906734, 34.9984653]]}}, {"type": "Feature", "properties": {"name": "coastline_seg_19", "role": "coastline", "source": "OpenStreetMap (© OpenStreetMap contributors)"}, "geometry": {"type": "LineString", "coordinates": [[35.9306493, 34.7662656], [35.9307271, 34.7657301], [35.9308264, 34.7648289], [35.9309551, 34.7639123], [35.9310865, 34.7632358], [35.9311482, 34.7626872], [35.931167, 34.7622575], [35.9311536, 34.7617176], [35.931167, 34.7615413], [35.9312126, 34.7613144], [35.9312609, 34.761072], [35.9313279, 34.7606621], [35.9313923, 34.7601994], [35.9314969, 34.7594568], [35.9315371, 34.7590205], [35.9315023, 34.7587494], [35.9313601, 34.7584365], [35.9312394, 34.7582977], [35.9310195, 34.7581831], [35.9306842, 34.7580222], [35.9302175, 34.7577534], [35.9298205, 34.7574868], [35.9294611, 34.7571672], [35.9293967, 34.7571033], [35.9293619, 34.7570504], [35.9293753, 34.7570042], [35.9294075, 34.756948], [35.9294209, 34.7569028], [35.9294155, 34.7568301], [35.9293847, 34.7567474], [35.9293096, 34.7566659], [35.9291728, 34.756602], [35.9290548, 34.7565392], [35.9289998, 34.7564852], [35.9289998, 34.7564279], [35.9290427, 34.7563894], [35.9291366, 34.7563717], [35.929319, 34.7563409], [35.9294665, 34.7562571], [35.9296274, 34.7560169], [35.9297991, 34.7557128], [35.9301907, 34.7549019], [35.9306949, 34.7538176], [35.9309363, 34.7532292], [35.9310383, 34.7529009], [35.9311134, 34.7524998], [35.9312019, 34.7521494], [35.9312502, 34.7519885], [35.9312984, 34.7518122], [35.9314352, 34.7514155], [35.9315532, 34.750891], [35.9315854, 34.7504459], [35.9315211, 34.7500492], [35.9314191, 34.749366], [35.9313118, 34.74889], [35.9311187, 34.7484867], [35.9308559, 34.7481362], [35.930526, 34.747863], [35.9301209, 34.7476889]]}}, {"type": "Feature", "properties": {"name": "coastline_seg_20", "role": "coastline", "source": "OpenStreetMap (© OpenStreetMap contributors)"}, "geometry": {"type": "LineString", "coordinates": [[35.87889, 34.9386225], [35.8788601, 34.9384733], [35.8789874, 34.9373103], [35.8792139, 34.9367777], [35.8796149, 34.9358346], [35.8797453, 34.9332968], [35.8798103, 34.9320317], [35.8794798, 34.9309961], [35.8796711, 34.9293876], [35.8795931, 34.9286578], [35.8794561, 34.9283871], [35.8792691, 34.9282837], [35.8795121, 34.9277281], [35.8795963, 34.9260882], [35.8794935, 34.9258622], [35.8797037, 34.9255557], [35.8797832, 34.9246514], [35.8796124, 34.9237313], [35.879376, 34.9235241], [35.8794868, 34.9218469], [35.8795919, 34.92133], [35.8796793, 34.9206694], [35.8797334, 34.9202786], [35.8797273, 34.9201039], [35.879705, 34.9198666], [35.8796453, 34.9196415], [35.8792287, 34.9189283], [35.8792145, 34.918904], [35.8788856, 34.9185636], [35.8787757, 34.9184498]]}}, {"type": "Feature", "properties": {"name": "coastline_seg_21", "role": "coastline", "source": "OpenStreetMap (© OpenStreetMap contributors)"}, "geometry": {"type": "Polygon", "coordinates": [[[35.872477, 34.8224946], [35.872665, 34.8225497], [35.8728906, 34.8226476], [35.8730311, 34.8227751], [35.8731161, 34.8228932], [35.8731456, 34.8229951], [35.8731668, 34.8230676], [35.8731603, 34.8231374], [35.8731047, 34.8232514], [35.8731014, 34.8232877], [35.8731031, 34.8233655], [35.8730622, 34.8234634], [35.8729968, 34.8235359], [35.8729935, 34.8235896], [35.8730034, 34.8236822], [35.8729805, 34.8237332], [35.8730001, 34.8238298], [35.8729265, 34.8239358], [35.8728356, 34.8241545], [35.8728334, 34.8242001], [35.8728023, 34.8242484], [35.8726977, 34.8242672], [35.8725735, 34.8242726], [35.8724362, 34.8242176], [35.8723299, 34.8241075], [35.8722139, 34.8240082], [35.8722139, 34.823913], [35.8722041, 34.8238459], [35.8722466, 34.82376], [35.8723225, 34.8237023], [35.8724225, 34.823643], [35.8724847, 34.823577], [35.8724945, 34.8234988], [35.8724917, 34.8234353], [35.8725032, 34.8233319], [35.8725054, 34.8232622], [35.8725159, 34.8231866], [35.8724908, 34.8231734], [35.8724683, 34.8232098], [35.8724142, 34.8232449], [35.8723701, 34.8232273], [35.8723382, 34.8231275], [35.8723956, 34.8230914], [35.8724525, 34.8230341], [35.8724264, 34.8229589], [35.8723316, 34.8227966], [35.8723234, 34.8226583], [35.8723495, 34.8225792], [35.8723642, 34.8225161], [35.872477, 34.8224946]]]}}, {"type": "Feature", "properties": {"name": "Area of Interest (Tartus)", "role": "aoi", "source": "OpenStreetMap (© OpenStreetMap contributors)"}, "geometry": {"type": "Polygon", "coordinates": [[[35.8060762, 34.862090800000004], [35.8060762, 34.9597811], [35.80610027636664, 34.96027118570165], [35.80617227359799, 34.96075655161008], [35.80629149832134, 34.96123252338627], [35.80645680233744, 34.961694517161824], [35.80666659367826, 34.96213808368413], [35.80691885193849, 34.9625589511651], [35.80721114773319, 34.962953066420816], [35.80754066609407, 34.96331663390593], [35.80790423357919, 34.96364615226681], [35.8082983488349, 34.96393844806151], [35.80871921631587, 34.964190706321745], [35.80916278283818, 34.96440049766256], [35.80962477661373, 34.96456580167866], [35.81010074838992, 34.964685026402016], [35.81058611429835, 34.96475702363336], [35.8110762, 34.9647811], [35.8990229, 34.9647811], [35.89951298570165, 34.96475702363336], [35.89999835161008, 34.964685026402016], [35.90047432338627, 34.96456580167866], [35.90093631716182, 34.96440049766256], [35.90137988368413, 34.964190706321745], [35.9018007511651, 34.96393844806151], [35.902194866420814, 34.96364615226681], [35.90255843390593, 34.96331663390593], [35.90288795226681, 34.962953066420816], [35.90318024806151, 34.9625589511651], [35.90343250632174, 34.96213808368413], [35.90364229766256, 34.961694517161824], [35.90380760167866, 34.96123252338627], [35.903926826402014, 34.96075655161008], [35.90399882363336, 34.96027118570165], [35.9040229, 34.9597811], [35.9040229, 34.862090800000004], [35.90399882363336, 34.861600714298355], [35.903926826402014, 34.86111534838992], [35.90380760167866, 34.86063937661373], [35.90364229766256, 34.86017738283818], [35.90343250632174, 34.859733816315874], [35.90318024806151, 34.859312948834905], [35.90288795226681, 34.85891883357919], [35.90255843390593, 34.85855526609407], [35.902194866420814, 34.858225747733194], [35.9018007511651, 34.85793345193849], [35.90137988368413, 34.85768119367826], [35.90093631716182, 34.857471402337445], [35.90047432338627, 34.857306098321345], [35.89999835161008, 34.85718687359799], [35.89951298570165, 34.857114876366644], [35.8990229, 34.8570908], [35.8110762, 34.8570908], [35.81058611429835, 34.857114876366644], [35.81010074838992, 34.85718687359799], [35.80962477661373, 34.857306098321345], [35.80916278283818, 34.857471402337445], [35.80871921631587, 34.85768119367826], [35.8082983488349, 34.85793345193849], [35.80790423357919, 34.858225747733194], [35.80754066609407, 34.85855526609407], [35.80721114773319, 34.85891883357919], [35.80691885193849, 34.859312948834905], [35.80666659367826, 34.859733816315874], [35.80645680233744, 34.86017738283818], [35.80629149832134, 34.86063937661373], [35.80617227359799, 34.86111534838992], [35.80610027636664, 34.861600714298355], [35.8060762, 34.862090800000004]]]}}]}