{"type": "FeatureCollection", "features": [{"type": "Feature", "properties": {"role": "zone_anchor", "name": "Anchorage / approach (0.4-4 km)"}, "geometry": {"type": "Polygon", "coordinates": [[[746783.7762523171, 3934598.4589271103], [746756.1306437571, 3935055.4694037414], [746780.8904879583, 3935512.6453059264], [746857.7313955934, 3935963.9969762866], [746860.0043568142, 3935973.8874268797], [746966.0514279533, 3936350.07762056], [747003.0905326555, 3936444.8639511913], [747003.8795636062, 3936651.328169893], [747041.9991188515, 3937032.5948721664], [747116.424124884, 3937408.4649524223], [747195.4985348409, 3937672.189563845], [747198.0885771742, 3937683.4400359574], [747204.9423758822, 3937703.6861416926], [747226.471651342, 3937775.489393945], [747242.8414374272, 3937815.6398829673], [747326.4759370283, 3938062.696003839], [747492.1358186214, 3938427.216520374], [747693.4083264712, 3938773.3491263622], [747928.2767301344, 3939097.6256076326], [748194.3876716439, 3939396.7967462023], [748489.0747459212, 3939667.8648771183], [748809.3852178893, 3939908.113924758], [749152.109608583, 3940115.1366176396], [749265.7740369514, 3940176.249689768], [749646.7420542617, 3940355.9031266063], [749681.132076779, 3940369.9578575217], [749786.9409864369, 3940419.9683270124], [749836.8659500066, 3940440.838521709], [750208.735472638, 3940575.1134458873], [750592.0442707791, 3940672.0209398847], [750983.0474965982, 3940730.614237489], [751010.2330777341, 3940733.3228284162], [751394.9632431598, 3940753.0123205124], [751779.803226582, 3940735.600731065], [752161.1835174623, 3940681.2495579813], [752535.5666949868, 3940590.4629252967], [752676.9500396214, 3940548.8756521363], [753083.1928021082, 3940405.188008491], [753471.6218805094, 3940218.634605784], [753837.7295718539, 3939991.3803883367], [753880.4336340548, 3939961.571044629], [754126.7881777555, 3939775.0492680063], [754191.3704876002, 3939717.795898646], [754191.3704876002, 3929670.873086541], [753907.9925826814, 3929413.3722213404], [753582.7214836656, 3929172.991267261], [753234.8384036004, 3928966.686508365], [752867.9001054221, 3928796.567208258], [752485.6581729635, 3928664.372669758], [752092.0206546928, 3928571.45445223], [751691.0121077544, 3928518.76255322], [751286.7324508241, 3928506.8356956616], [750883.3150464656, 3928535.7958199633], [750484.8844415568, 3928605.346837288], [750095.514197847, 3928714.777656769], [749848.4310253758, 3928812.074714101], [749646.9955321214, 3928859.924019975], [749283.2122745245, 3928984.272141064], [748933.046805596, 3929142.969520048], [748873.2912761732, 3929173.593819774], [748560.0426487777, 3929352.405133964], [748264.175078318, 3929558.707265309], [748192.8787284386, 3929618.649817907], [748105.4798634041, 3929676.4191017626], [747792.117238225, 3929932.57465446], [747506.2444505586, 3930219.085651297], [747250.7883339362, 3930533.018724606], [747028.3643087833, 3930871.159752982], [746841.2496051233, 3931230.0467682267], [746691.3599477558, 3931606.0053997952], [746580.2299426108, 3931995.1864938806], [746508.9973650886, 3932393.6055219606], [746478.3915112446, 3932797.183375351], [746488.7257310832, 3933201.7881280878], [746539.8942204062, 3933603.277340567], [746631.3731040607, 3933997.540470827], [746762.2257994979, 3934380.5409592516], [746804.4955142558, 3934472.599675783], [746784.6332529121, 3934591.2101520686], [746783.7762523171, 3934598.4589271103]], [[750153.6875744801, 3933142.261602749], [750122.5316735448, 3933082.571154884], [750105.6429929218, 3933045.7894952265], [750092.5577233781, 3933007.489446384], [750083.4098350126, 3932968.0631333576], [750078.2929860803, 3932927.91421211], [750077.2595640963, 3932887.453736836], [750080.3201494808, 3932847.095951497], [750087.443407233, 3932807.2540486893], [750098.5564077474, 3932768.3359392807], [750113.5453734843, 3932730.7400761237], [750132.2568438502, 3932694.851374599], [750154.4992463655, 3932661.0372717613], [750180.0448580278, 3932629.643964431], [750208.6321367945, 3932600.992864747], [750239.9683993123, 3932575.377309477], [750273.7328174795, 3932553.059556763], [750380.8432372356, 3932489.8051091954], [750395.8981376758, 3932470.744287549], [750422.2443356598, 3932443.2334465086], [750451.0879298084, 3932418.353422402], [750482.1673504517, 3932396.3298410526], [750515.200752208, 3932377.3624244817], [750574.9562816308, 3932346.738124755], [750609.9728285236, 3932330.8683868567], [750646.3511542833, 3932318.4335747478], [750683.7552125028, 3932309.54855556], [750721.8394815259, 3932304.295405054], [750760.2521562186, 3932302.7226494425], [750798.6383977849, 3932304.8448171252], [750836.0587438436, 3932310.5530861076], [750909.0507441448, 3932273.1500924714], [750947.0903227414, 3932256.098422499], [751048.1309309186, 3932216.992714224], [751176.4136690525, 3932155.1325525693], [751184.9668008276, 3932151.1318180123], [751205.8801102516, 3932141.6488200407], [751243.5130056575, 3932126.829640146], [751282.4500300285, 3932115.886558198], [751322.2930905194, 3932108.9314564653], [751362.6348309552, 3932106.035444035], [751403.0627966482, 3932107.228129791], [751443.163651342, 3932112.497319692], [751482.5274031691, 3932121.7891414445], [751520.751596415, 3932135.008595295], [751557.4454262328, 3932152.0205253055], [751592.2337342394, 3932172.651001195], [751624.7608441409, 3932196.689096603], [751654.6941981744, 3932223.8890456045], [751681.727757184, 3932253.9727554265], [751705.5851295707, 3932286.632649673], [751726.0223971254, 3932321.5348129915], [751742.8306088531, 3932358.3224050286], [751754.4639592373, 3932387.6186991404], [751768.4395084967, 3932429.3825164423], [751777.7391150753, 3932472.4295805725], [751782.2500484209, 3932516.23807168], [751805.7813508897, 3933010.9507810683], [751811.2032074258, 3933124.904613609], [751935.9394936063, 3933288.7990318406], [751957.9738904502, 3933320.876477047], [751976.7868615224, 3933354.9433121607], [751992.2003329819, 3933390.6770781646], [752004.0684088906, 3933427.7395377355], [752012.2787521888, 3933465.779876827], [752016.7536480187, 3933504.438025289], [752017.450739334, 3933543.348065111], [752011.5629857985, 3933734.753046234], [752008.4170061155, 3933774.000179625], [752001.4277533374, 3933812.7478894047], [751990.6629461014, 3933850.6207503043], [751976.2268842658, 3933887.251813437], [751958.2594383527, 3933922.2861616528], [751936.9346943467, 3933955.38434832], [751912.459266982, 3933986.22568621], [751885.0702978584, 3934014.511354629], [751855.033157785, 3934039.9672946776], [751822.6388756109, 3934062.3468646016], [751788.2013184563, 3934081.4332294934], [751752.0541506651, 3934097.0414622], [751714.5476009409, 3934109.020335075], [751676.0450689943, 3934117.2537852176], [751656.2987379978, 3934119.478598129], [751659.2193494225, 3934140.73632403], [751660.7308502344, 3934179.859862508], [751658.6997587136, 3934214.0673099156], [751698.9332346077, 3934358.1732255383], [751745.9371355501, 3934523.7415111815], [751746.1135783362, 3934524.3649412305], [751784.0527476415, 3934658.8319519646], [751819.8219238939, 3934776.0331711993], [751827.595796986, 3934805.476020779], [751835.2927853073, 3934839.8851294527], [751840.2097305933, 3934849.364051052], [751856.2662026903, 3934884.3382761735], [751868.8874015147, 3934920.693634229], [751877.9565015647, 3934958.093609407], [751881.8261445571, 3934985.2288461137], [751892.9119127442, 3935001.879635111], [751911.182789925, 3935036.1043445906], [751913.2634429053, 3935041.118521501], [751938.551134, 3935068.629959086], [751963.3617479316, 3935102.0020855125], [751984.5735740251, 3935137.7697219965], [751994.0654651894, 3935155.856588728], [752029.3222563404, 3935223.0368843162], [752045.8818362739, 3935258.760950718], [752076.3586565766, 3935334.010389068], [752092.9748469926, 3935346.394358313], [752121.6282136567, 3935372.41510371], [752147.6325397012, 3935401.0833725655], [752170.7443442463, 3935432.13074126], [752190.7472293554, 3935465.266510445], [752207.4539061884, 3935500.180426888], [752269.7575837433, 3935648.406130431], [752283.6697102743, 3935686.9115149523], [752293.5729504022, 3935726.6372967158], [752297.6576408979, 3935755.227146098], [752309.2326681049, 3935790.1337848823], [752312.7680035537, 3935802.8362042657], [752321.8597374003, 3935843.656063825], [752326.6398903967, 3935885.202070806], [752327.0562118691, 3935927.020096049], [752323.1041511098, 3935968.653037028], [752314.8269071211, 3936009.645814327], [752302.3149564163, 3936049.550346004], [752273.4518712531, 3936127.1393903983], [752272.3762618206, 3936129.997385409], [752046.4196676144, 3936723.503063904], [752028.4287413046, 3936763.8909056177], [752006.0903033657, 3936802.0464475253], [751965.9099287555, 3936862.717083316], [751939.4057226264, 3936898.2833496938], [751909.1266162978, 3936930.6964329556], [751867.6023817833, 3936970.476638761], [751844.4802391804, 3936990.9748305106], [751819.8447848103, 3937009.6270081727], [751777.1407226094, 3937039.4363518804], [751740.529953475, 3937062.1617736253], [751701.6870456348, 3937080.817113896], [751661.0627693861, 3937095.1858782605], [751519.6794247514, 3937136.773151421], [751482.241106999, 3937145.8518146896], [751444.103077911, 3937151.2869319976], [751405.6190795688, 3937153.0280909427], [751367.1460630262, 3937151.0591417328], [751339.9604818902, 3937148.3505508057], [751300.8601593083, 3937142.4912210456], [751262.5292794942, 3937132.800471646], [751225.3423272311, 3937119.372979228], [751175.4173636613, 3937098.502784531], [751142.4652543339, 3937082.9280048315], [751095.3206969764, 3937057.9567967295], [751050.8687698189, 3937040.64965484], [751026.3255140178, 3937029.685618272], [751006.1547380212, 3937022.4258266054], [750970.5683684561, 3937005.496421652], [750856.9039400878, 3936944.3833495234], [750822.6315010184, 3936923.681080235], [750790.6004538216, 3936899.6561754714], [750761.1317463939, 3936872.5493623796], [750734.5206522429, 3936842.6322485227], [750711.0338118766, 3936810.2046003956], [750690.9065610917, 3936775.591339797], [750674.3405729323, 3936739.1392881433], [750661.5018369469, 3936701.213691355], [750652.5189959888, 3936662.1945601273], [750649.63739458, 3936639.4700232674], [750635.7879857001, 3936613.0592359765], [750621.321961584, 3936577.5781405335], [750610.3172089383, 3936540.8756963816], [750602.874708335, 3936503.288688356], [750599.0627528104, 3936465.1620181287], [750598.9163212018, 3936426.8455393584], [750602.4367571783, 3936388.6908474048], [750609.5917569116, 3936351.0480530565], [750620.3156654986, 3936314.262569885], [750634.5100794167, 3936278.6719446997], [750652.0447494829, 3936244.602760189], [750672.7587760317, 3936212.3676381684], [750696.4620853445, 3936182.2623709356], [750722.9371737831, 3936154.5632070545], [750808.2301608184, 3936073.484155277], [750834.4821979395, 3936050.619335513], [750862.6229253615, 3936030.1237531602], [750924.8401868136, 3935988.8294841223], [750946.4448189656, 3935930.074273271], [750946.7512761697, 3935929.2436817605], [750962.0035323115, 3935888.045910901], [750967.0174836162, 3935862.8323218157], [750969.1101706177, 3935847.601430018], [750968.9526468699, 3935844.3841552483], [750968.8754542503, 3935843.1207501697], [750743.0955704716, 3935625.0033182804], [750611.1456687988, 3935499.4005044173], [750607.7437971788, 3935496.123768949], [750484.2841200446, 3935375.7922244933], [750458.5762077761, 3935348.258820499], [750435.5723350686, 3935318.429188768], [750415.4765153743, 3935286.5678780675], [750398.4669716212, 3935252.9574554274], [750393.376007305, 3935241.599956336], [750379.1504514447, 3935205.195506173], [750368.5457443307, 3935167.5764868055], [750366.2727831099, 3935157.6860362124], [750358.5886923464, 3935112.550869176], [750356.1127079263, 3935066.8332789578], [750358.8772687822, 3935021.1322312946], [750359.7342693772, 3935013.883456253], [750366.1052855784, 3934975.8379762867], [750376.1114405987, 3934938.58310741], [750389.6596741702, 3934902.4653311716], [750393.5529212756, 3934893.4363850513], [750407.2161425479, 3934865.5993149844], [750407.7469566561, 3934849.6687363572], [750413.0108603126, 3934810.2531013377], [750422.1623717039, 3934771.5548997656], [750435.1110452438, 3934733.956591037], [750451.7289074948, 3934697.8297641645], [750471.8517219468, 3934663.5314653115], [750495.2806121879, 3934631.40066906], [750521.7840274258, 3934601.75492828], [750552.9228408579, 3934570.2289594156], [750581.7380105358, 3934543.777100398], [750612.9990004625, 3934520.2661378942], [750646.40687452, 3934499.920897664], [750669.9912274848, 3934488.552199501], [750662.2685840019, 3934461.413619689], [750653.3355767289, 3934422.873507389], [750648.2533915556, 3934383.6394626196], [750647.0717430168, 3934344.0952774365], [750649.802190138, 3934304.6277777236], [750656.4180233633, 3934265.623039219], [750660.4667229847, 3934250.8192184707], [750567.0645377787, 3933925.629799265], [750557.7130869796, 3933885.3174588033], [750555.848216296, 3933870.4088028157], [750538.6962291475, 3933848.6767047015], [750517.5729184265, 3933815.742860255], [750198.0064319702, 3933259.3762723277], [750180.0900390636, 3933224.288295588], [750165.712303159, 3933187.608001741], [750155.0127029638, 3933149.6912270607], [750153.6875744801, 3933142.261602749]]]}}, {"type": "Feature", "properties": {"role": "zone_port", "name": "Port basin / berths (<400 m)"}, "geometry": {"type": "Polygon", "coordinates": [[[750155.0127029638, 3933149.6912270607], [750165.712303159, 3933187.608001741], [750180.0900390636, 3933224.288295588], [750198.0064319702, 3933259.3762723277], [750517.5729184265, 3933815.742860255], [750538.6962291475, 3933848.6767047015], [750555.848216296, 3933870.4088028157], [750557.7130869796, 3933885.3174588033], [750567.0645377787, 3933925.629799265], [750660.4667229847, 3934250.8192184707], [750656.4180233633, 3934265.623039219], [750649.802190138, 3934304.6277777236], [750647.0717430168, 3934344.0952774365], [750648.2533915556, 3934383.6394626196], [750653.3355767289, 3934422.873507389], [750662.2685840019, 3934461.413619689], [750669.9912274848, 3934488.552199501], [750646.40687452, 3934499.920897664], [750612.9990004625, 3934520.2661378942], [750581.7380105358, 3934543.777100398], [750552.9228408579, 3934570.2289594156], [750521.7840274258, 3934601.75492828], [750495.2806121879, 3934631.40066906], [750471.8517219468, 3934663.5314653115], [750451.7289074948, 3934697.8297641645], [750435.1110452438, 3934733.956591037], [750422.1623717039, 3934771.5548997656], [750413.0108603126, 3934810.2531013377], [750407.7469566561, 3934849.6687363572], [750407.2161425479, 3934865.5993149844], [750393.5529212756, 3934893.4363850513], [750389.6596741702, 3934902.4653311716], [750376.1114405987, 3934938.58310741], [750366.1052855784, 3934975.8379762867], [750359.7342693772, 3935013.883456253], [750358.8772687822, 3935021.1322312946], [750356.1127079263, 3935066.8332789578], [750358.5886923464, 3935112.550869176], [750366.2727831099, 3935157.6860362124], [750368.5457443307, 3935167.5764868055], [750379.1504514447, 3935205.195506173], [750393.376007305, 3935241.599956336], [750398.4669716212, 3935252.9574554274], [750415.4765153743, 3935286.5678780675], [750435.5723350686, 3935318.429188768], [750458.5762077761, 3935348.258820499], [750484.2841200446, 3935375.7922244933], [750607.7437971788, 3935496.123768949], [750611.1456687988, 3935499.4005044173], [750743.0955704716, 3935625.0033182804], [750968.8754542503, 3935843.1207501697], [750968.9526468699, 3935844.3841552483], [750969.1101706177, 3935847.601430018], [750967.0174836162, 3935862.8323218157], [750962.0035323115, 3935888.045910901], [750946.7512761697, 3935929.2436817605], [750946.4448189656, 3935930.074273271], [750924.8401868136, 3935988.8294841223], [750862.6229253615, 3936030.1237531602], [750834.4821979395, 3936050.619335513], [750808.2301608184, 3936073.484155277], [750722.9371737831, 3936154.5632070545], [750696.4620853445, 3936182.2623709356], [750672.7587760317, 3936212.3676381684], [750652.0447494829, 3936244.602760189], [750634.5100794167, 3936278.6719446997], [750620.3156654986, 3936314.262569885], [750609.5917569116, 3936351.0480530565], [750602.4367571783, 3936388.6908474048], [750598.9163212018, 3936426.8455393584], [750599.0627528104, 3936465.1620181287], [750602.874708335, 3936503.288688356], [750610.3172089383, 3936540.8756963816], [750621.321961584, 3936577.5781405335], [750635.7879857001, 3936613.0592359765], [750649.63739458, 3936639.4700232674], [750652.5189959888, 3936662.1945601273], [750661.5018369469, 3936701.213691355], [750674.3405729323, 3936739.1392881433], [750690.9065610917, 3936775.591339797], [750711.0338118766, 3936810.2046003956], [750734.5206522429, 3936842.6322485227], [750761.1317463939, 3936872.5493623796], [750790.6004538216, 3936899.6561754714], [750822.6315010184, 3936923.681080235], [750856.9039400878, 3936944.3833495234], [750970.5683684561, 3937005.496421652], [751006.1547380212, 3937022.4258266054], [751026.3255140178, 3937029.685618272], [751050.8687698189, 3937040.64965484], [751095.3206969764, 3937057.9567967295], [751142.4652543339, 3937082.9280048315], [751175.4173636613, 3937098.502784531], [751225.3423272311, 3937119.372979228], [751262.5292794942, 3937132.800471646], [751300.8601593083, 3937142.4912210456], [751339.9604818902, 3937148.3505508057], [751367.1460630262, 3937151.0591417328], [751405.6190795688, 3937153.0280909427], [751444.103077911, 3937151.2869319976], [751482.241106999, 3937145.8518146896], [751519.6794247514, 3937136.773151421], [751661.0627693861, 3937095.1858782605], [751701.6870456348, 3937080.817113896], [751740.529953475, 3937062.1617736253], [751777.1407226094, 3937039.4363518804], [751819.8447848103, 3937009.6270081727], [751844.4802391804, 3936990.9748305106], [751867.6023817833, 3936970.476638761], [751909.1266162978, 3936930.6964329556], [751939.4057226264, 3936898.2833496938], [751965.9099287555, 3936862.717083316], [752006.0903033657, 3936802.0464475253], [752028.4287413046, 3936763.8909056177], [752046.4196676144, 3936723.503063904], [752272.3762618206, 3936129.997385409], [752273.4518712531, 3936127.1393903983], [752302.3149564163, 3936049.550346004], [752314.8269071211, 3936009.645814327], [752323.1041511098, 3935968.653037028], [752327.0562118691, 3935927.020096049], [752326.6398903967, 3935885.202070806], [752321.8597374003, 3935843.656063825], [752312.7680035537, 3935802.8362042657], [752309.2326681049, 3935790.1337848823], [752297.6576408979, 3935755.227146098], [752293.5729504022, 3935726.6372967158], [752283.6697102743, 3935686.9115149523], [752269.7575837433, 3935648.406130431], [752207.4539061884, 3935500.180426888], [752190.7472293554, 3935465.266510445], [752170.7443442463, 3935432.13074126], [752147.6325397012, 3935401.0833725655], [752121.6282136567, 3935372.41510371], [752092.9748469926, 3935346.394358313], [752076.3586565766, 3935334.010389068], [752045.8818362739, 3935258.760950718], [752029.3222563404, 3935223.0368843162], [751994.0654651894, 3935155.856588728], [751984.5735740251, 3935137.7697219965], [751963.3617479316, 3935102.0020855125], [751938.551134, 3935068.629959086], [751913.2634429053, 3935041.118521501], [751911.182789925, 3935036.1043445906], [751892.9119127442, 3935001.879635111], [751881.8261445571, 3934985.2288461137], [751877.9565015647, 3934958.093609407], [751868.8874015147, 3934920.693634229], [751856.2662026903, 3934884.3382761735], [751840.2097305933, 3934849.364051052], [751835.2927853073, 3934839.8851294527], [751827.595796986, 3934805.476020779], [751819.8219238939, 3934776.0331711993], [751784.0527476415, 3934658.8319519646], [751746.1135783362, 3934524.3649412305], [751745.9371355501, 3934523.7415111815], [751698.9332346077, 3934358.1732255383], [751658.6997587136, 3934214.0673099156], [751660.7308502344, 3934179.859862508], [751659.2193494225, 3934140.73632403], [751656.2987379978, 3934119.478598129], [751676.0450689943, 3934117.2537852176], [751714.5476009409, 3934109.020335075], [751752.0541506651, 3934097.0414622], [751788.2013184563, 3934081.4332294934], [751822.6388756109, 3934062.3468646016], [751855.033157785, 3934039.9672946776], [751885.0702978584, 3934014.511354629], [751912.459266982, 3933986.22568621], [751936.9346943467, 3933955.38434832], [751958.2594383527, 3933922.2861616528], [751976.2268842658, 3933887.251813437], [751990.6629461014, 3933850.6207503043], [752001.4277533374, 3933812.7478894047], [752008.4170061155, 3933774.000179625], [752011.5629857985, 3933734.753046234], [752017.450739334, 3933543.348065111], [752016.7536480187, 3933504.438025289], [752012.2787521888, 3933465.779876827], [752004.0684088906, 3933427.7395377355], [751992.2003329819, 3933390.6770781646], [751976.7868615224, 3933354.9433121607], [751957.9738904502, 3933320.876477047], [751935.9394936063, 3933288.7990318406], [751811.2032074258, 3933124.904613609], [751805.7813508897, 3933010.9507810683], [751782.2500484209, 3932516.23807168], [751777.7391150753, 3932472.4295805725], [751768.4395084967, 3932429.3825164423], [751754.4639592373, 3932387.6186991404], [751742.8306088531, 3932358.3224050286], [751726.0223971254, 3932321.5348129915], [751705.5851295707, 3932286.632649673], [751681.727757184, 3932253.9727554265], [751654.6941981744, 3932223.8890456045], [751624.7608441409, 3932196.689096603], [751592.2337342394, 3932172.651001195], [751557.4454262328, 3932152.0205253055], [751520.751596415, 3932135.008595295], [751482.5274031691, 3932121.7891414445], [751443.163651342, 3932112.497319692], [751403.0627966482, 3932107.228129791], [751362.6348309552, 3932106.035444035], [751322.2930905194, 3932108.9314564653], [751282.4500300285, 3932115.886558198], [751243.5130056575, 3932126.829640146], [751205.8801102516, 3932141.6488200407], [751184.9668008276, 3932151.1318180123], [751176.4136690525, 3932155.1325525693], [751048.1309309186, 3932216.992714224], [750947.0903227414, 3932256.098422499], [750909.0507441448, 3932273.1500924714], [750836.0587438436, 3932310.5530861076], [750798.6383977849, 3932304.8448171252], [750760.2521562186, 3932302.7226494425], [750721.8394815259, 3932304.295405054], [750683.7552125028, 3932309.54855556], [750646.3511542833, 3932318.4335747478], [750609.9728285236, 3932330.8683868567], [750574.9562816308, 3932346.738124755], [750515.200752208, 3932377.3624244817], [750482.1673504517, 3932396.3298410526], [750451.0879298084, 3932418.353422402], [750422.2443356598, 3932443.2334465086], [750395.8981376758, 3932470.744287549], [750380.8432372356, 3932489.8051091954], [750273.7328174795, 3932553.059556763], [750239.9683993123, 3932575.377309477], [750208.6321367945, 3932600.992864747], [750180.0448580278, 3932629.643964431], [750154.4992463655, 3932661.0372717613], [750132.2568438502, 3932694.851374599], [750113.5453734843, 3932730.7400761237], [750098.5564077474, 3932768.3359392807], [750087.443407233, 3932807.2540486893], [750080.3201494808, 3932847.095951497], [750077.2595640963, 3932887.453736836], [750078.2929860803, 3932927.91421211], [750083.4098350126, 3932968.0631333576], [750092.5577233781, 3933007.489446384], [750105.6429929218, 3933045.7894952265], [750122.5316735448, 3933082.571154884], [750153.6875744801, 3933142.261602749], [750155.0127029638, 3933149.6912270607]]]}}]}